FMID,MarketName,Website,Facebook,Twitter,Youtube,OtherMedia,street,city,County,State,zip,Season1Date,Season1Time,Season2Date,Season2Time,Season3Date,Season3Time,Season4Date,Season4Time,x,y,Location,Credit,WIC,WICcash,SFMNP,SNAP,Organic,Bakedgoods,Cheese,Crafts,Flowers,Eggs,Seafood,Herbs,Vegetables,Honey,Jams,Maple,Meat,Nursery,Nuts,Plants,Poultry,Prepared,Soap,Trees,Wine,Coffee,Beans,Fruits,Grains,Juices,Mushrooms,PetFood,Tofu,WildHarvested,updateTime
1018304,Alamo Heights Farmers Market,,https://www.facebook.com/AlamoHeightsFarmersMarket/,https://twitter.com/AlamoHeightsFM,,https://www.instagram.com/alamoheightsfm/?hl=en,255 E Basse,San Antonio ,Bexar,Texas,78209,01/01/2017 to 12/31/2017,Sun: 9:00 AM-1:00 PM;,,,,,,,-98.481174,29.493258,,Y,N,N,N,N,-,Y,Y,N,N,Y,N,Y,Y,Y,Y,Y,Y,N,Y,N,Y,Y,Y,N,N,Y,N,Y,N,Y,N,Y,N,N,6/21/17 13:43
1011910,Aledo Farmers Market,http://www.aledo-texas.com,City of Aledo,,,,128 Elm Street,Aledo,Parker,Texas,76008,04/18/2016 to ,Mon: 3:00 PM-6:00 PM;,,,,,,,-97.602554,32.696496,,Y,N,N,N,N,Y,Y,N,N,N,Y,N,N,Y,N,Y,N,N,N,N,N,Y,N,N,N,N,N,N,N,N,N,N,Y,N,N,4/28/16 17:02
1011735,All Natural & Certified Organic Farmer Market (HOPE FARM),http://www.hopeforsfs.org,Facebook.com/HOPESFS,,,,19833 Morris RD ,Harlingen ,Cameron,Texas,78552,10/01/2016 to 07/01/2017,Mon: 10:00 AM-6:00 PM;Thu: 10:00 AM-6:00 PM;Fri: 10:00 AM-6:00 PM;Sat: 1:00 PM-6:00 PM;,,,,,,,-97.704718,26.155226,,Y,Y,N,N,Y,Y,N,Y,N,N,Y,N,Y,Y,Y,Y,N,N,N,N,Y,Y,Y,N,Y,N,Y,Y,Y,N,Y,N,N,N,Y,7/16/16 20:24
1010280,Angelina County Farmers Market,http://visitlufkin.com/ShopDine/FarmersMarket/,https://www.facebook.com/angelinacountyfarmmarket/settings?tab=public&section=web_address,,,,2107 S Medford Dr ,Lufkin ,Angelina,Texas,75901,01/01/2014 to 12/31/2014,Mon: 9:00 AM-5:30 PM;Tue: 9:00 AM-5:30 PM;Wed: 9:00 AM-5:30 PM;Thu: 9:00 AM-5:30 PM;Fri: 9:00 AM-5:30 PM;Sat: 9:00 AM-4:00 PM;Sun: 11:00 AM-3:00 PM;,,,,,,,-94.697749,31.321061,Local government building grounds,Y,N,N,N,Y,-,Y,N,N,N,Y,N,Y,Y,Y,Y,Y,N,N,Y,N,N,Y,Y,Y,N,Y,Y,Y,N,N,N,Y,N,Y,6/8/14 0:14
1000683,Apple Country Farmers Market,http://www.applecountryorchards.com,,,,,19th and Ave A,Lubbock,Lubbock,Texas,79401,June to September,Mon:9:00 AM - 5:30 PM;Tue:9:00 AM - 5:30 PM;Wed:9:00 AM - 5:30 PM;Thu:9:00 AM - 5:30 PM;Fri:9:00 AM - 5:30 PM;Sat:9:00 AM - 5:30 PM;,,,,,,,-101.8364,33.57785,Other,Y,N,Y,N,Y,-,Y,N,N,N,N,N,Y,Y,Y,Y,N,N,N,N,N,N,N,N,N,N,N,N,N,N,N,N,N,N,N,5/25/12 20:45
1000685,Apple Country Farmers Market,http://www.applecountryorchards.com,,,,,12206 E. Hwy 62,Idalou,Lubbock,Texas,79329,January to December,Mon:9:00 AM - 6:00 PM;Tue:9:00 AM - 6:00 PM;Wed:9:00 AM - 6:00 PM;Thu:9:00 AM - 6:00 PM;Fri:9:00 AM - 6:00 PM;Sat:9:00 AM - 6:00 PM;sun:9:00 AM - 4:00 PM;,,,,,,,-101.611862,33.666336,"On a farm from: a barn, a greenhouse, a tent, a stand, etc",Y,N,Y,N,Y,N,Y,N,N,N,N,N,Y,Y,Y,Y,N,N,N,N,N,N,N,N,N,N,N,N,N,N,N,N,N,N,N,5/25/12 20:45
1007662,Area Farmers Market,http://www.brazosvalleyfarmersmarket.com,,,,,3102 Baldwin Street,Corpus Christi,Nueces,Texas,78405,,,,,,,,,-97.4258,27.7763,,N,N,N,N,N,-,N,N,N,N,N,N,N,N,N,N,N,N,N,N,N,N,N,N,N,N,N,N,N,N,N,N,N,N,N,2009
1010688,Bandera Farmers Market,http://www.banderafarmersmarket.org/,https://www.facebook.com/pages/Bandera-Farmers-Market/229035860539228,,,, 702 Main St,Bandera,Bandera,Texas,78003,01/01/2014 to 12/31/2014,Thu: 8:00 AM-11:00 AM;,,,,,,,-99.074251,29.727714,,Y,N,N,N,N,N,Y,N,N,Y,Y,N,Y,N,Y,Y,N,N,N,Y,Y,N,N,Y,N,N,N,N,Y,N,N,N,N,N,N,10/26/14 11:29
1009308,Barton Creek Farmers Market,http://www.bartoncreekfarmersmarket.org/,,,,,2901 Capital of TX Hwy. S.,Austin,,Texas,78746,,,,,,,,,-97.7557,30.3222,,Y,N,N,N,N,-,N,N,N,N,N,N,N,N,N,N,N,N,N,N,N,N,N,N,N,N,N,N,N,N,N,N,N,N,N,2013
1009402,Barton Creek Farmers Market (Highland Mall),http://www.bartoncreekfarmersmarket.org/,,,,,Highland Mall - 6001 Airport Blvd,Austin,,Texas,78752,,,,,,,,,-97.7157,30.3244,,Y,N,N,N,N,-,N,N,N,N,N,N,N,N,N,N,N,N,N,N,N,N,N,N,N,N,N,N,N,N,N,N,N,N,N,2013
1000436,Bastrop 1832 Farmers Market,http://www.bastrop1832farmersmarket.org,https://www.facebook.com/pages/Bastrop-1832-Farmers-Market/118950738119102,https://twitter.com/bastrop1832,,http://www.pinterest.com/dlpr/bastrop-1832-farmers-market/,1302 Chestnut Street,Bastrop,Bastrop,Texas,78602,01/01/2016 to 12/31/2016,Sat: 10:00 AM-2:00 PM;,,,,,,,-97.312067,30.110719,,Y,N,N,N,Y,N,Y,N,Y,Y,Y,N,Y,Y,Y,Y,N,Y,N,Y,Y,N,Y,Y,Y,N,Y,N,Y,N,Y,N,N,N,N,7/17/16 17:21
1018735,Beaumont Farmers' Market,http://www.beaumontfarmersmarket.org,Beaumont Farmers Market,,,Instagram,,"Beaumont, ",Jefferson,Texas,77707,02/18/2017 to 12/16/2017,Sat: 8:00 AM-11:00 AM;,,,,,,,-94.167186,30.067677,,Y,N,N,N,N,N,Y,N,Y,Y,Y,N,Y,Y,Y,Y,N,Y,N,N,Y,N,Y,Y,Y,N,Y,N,Y,N,N,Y,Y,N,Y,7/26/17 18:19
1007653,Bell County Farmers Market Association I,http://www.austinfarmersmarket.org,,,,,Corner of East Central and Penelope,Belton,Bell,Texas,76513,,,,,,,,,-97.4619,31.0559,,N,N,N,N,N,-,N,N,N,N,N,N,N,N,N,N,N,N,N,N,N,N,N,N,N,N,N,N,N,N,N,N,N,N,N,2009
1007182,Bell County Farmers Market Association II,,,,,,212 S. Main Street,Temple,Bell,Texas,76501,,,,,,,,,-97.342,31.0945,,N,N,N,N,N,-,N,N,N,N,N,N,N,N,N,N,N,N,N,N,N,N,N,N,N,N,N,N,N,N,N,N,N,N,N,2009
1012513,Bosque Farmers Market,http://bosque.agrilife.org/bosque-farmers-market/,https://www.facebook.com/Bosque-Farmers-Market-956350901151818/,,,https://www.instagram.com/bosquefarmersmarket/,110 South Main,Meridian ,Bosque,Texas,76665,05/07/2016 to 10/29/2016,Sat: 9:00 AM-1:00 PM;,,,,,,,-97.6573069,31.9228027,,Y,N,N,N,N,-,Y,Y,Y,Y,N,N,Y,Y,Y,Y,N,N,N,N,N,Y,N,Y,N,N,N,Y,Y,N,N,N,N,N,N,7/13/16 8:27
1009863,Bowie Farmers Market,,https://www.facebook.com/pages/Bowie-Farmers-Market/213945728747865,,,,100 W clay,Bowie,Montague,Texas,,01/01/2014 to 12/31/2014,Wed: 10:00 AM-5:00 PM;Fri: 10:00 AM-5:00 PM;Sat: 9:00 AM-3:00 PM;,,,,,,,-97.85003,33.557334,,Y,N,N,N,N,-,N,N,N,N,N,N,N,N,N,N,N,N,N,N,N,N,N,N,N,N,N,N,N,N,N,N,N,N,N,4/10/14 9:21
1007663,Brazos Valley Farmers Market,http://www.brazosvalleyfarmersmarket.com,https://www.facebook.com/brazos.valley.farmers.market,,,,201 North Texas Avenue,Bryan,Brazos,Texas,77803,,,,,,,,,-96.37,30.6744,,N,N,N,N,N,-,N,N,N,N,N,N,N,N,N,N,N,N,N,N,N,N,N,N,N,N,N,N,N,N,N,N,N,N,N,2009
1010604,BRIT First Saturday Farmers Market,http://www.brit.org,https://www.facebook.com/BRITorg,,,,1700 University Drive,Fort Worth,Tarrant,Texas,76107,04/05/2014 to 10/04/2014,Sat: 8:00 AM-12:00 PM;,,,,,,,-97.362428,32.741786,,Y,N,N,N,N,N,Y,N,N,N,Y,N,Y,Y,Y,Y,N,Y,N,N,Y,Y,Y,Y,N,N,Y,N,Y,N,N,N,N,N,N,9/24/14 16:54
1006168,Brownsville Farmers' Market,http://www.brownsvillefarmersmarket.com,https://www.facebook.com/BrownsvilleFarmersMarket,,,,"Linear Park, 6th & Ringgold St.",Brownsville,Cameron,Texas,78520,01/01/2014 to 01/01/2015,Sat: 9:00 AM-12:00 PM;,,,,,,,-97.494221,25.911617,Local government building grounds,Y,Y,N,N,Y,N,Y,N,N,Y,Y,N,Y,Y,Y,Y,N,Y,N,Y,Y,N,Y,Y,Y,N,Y,N,Y,N,N,N,N,N,N,3/31/14 17:22
1006966,Brownwood Area Farmers Market,,,,,,Bank of America Parking lot at Baker & Main St.,Brownwood,Brown,Texas,76801,,,,,,,,,-98.9906,31.7084,,N,N,N,N,N,-,N,N,N,N,N,N,N,N,N,N,N,N,N,N,N,N,N,N,N,N,N,N,N,N,N,N,N,N,N,2009
1012625,Bryan House Farmers Market,,,,,,1113  E. Mile 2 Rd,Mission ,Hidalgo,Texas,78574,10/01/2016 to ,Sat: 12:00 PM-2:00 PM;,,,,,,,-98.305365,26.241991,,Y,Y,N,N,N,-,Y,Y,N,Y,Y,N,N,Y,Y,Y,N,N,N,N,Y,N,Y,Y,N,N,N,N,Y,N,Y,N,N,N,Y,7/15/16 0:35
1009233,Burleson Farmers Market,http://www.burlesonfarmersmarket.com/,,,,,217 W Renfro,Burleson,,Texas,76028,,,,,,,,,-97.3239,32.5426,,Y,N,N,N,N,-,N,N,N,N,N,N,N,N,N,N,N,N,N,N,N,N,N,N,N,N,N,N,N,N,N,N,N,N,N,2013
1004249,Burnet Road Farmers' Market,http://www.funkytonkfarmersmarket.com,https://www.facebook.com/funkytonkfarmersmarket,,,,6701 Burnet Road Market,Austin,Austin,Texas,78757,,Sat: 9:00 AM-1:00 PM;,,,,,,,-97.7018,30.4258,Private business parking lot,N,N,N,N,N,Y,Y,N,N,N,Y,N,N,Y,N,N,N,N,N,N,N,N,N,N,N,N,N,N,Y,N,N,N,N,N,N,4/2/14 11:40
1011711,Castle Hills Farm To Market,http://localfarmtomarket.com,https://www.facebook.com/Castle-Hills-Farm-To-Market-343343119195490,,,,2211 NW Military,Castle Hills ,Bexar,Texas,78213,01/01/2015 to 12/31/2015,Sun: 10:00 AM-2:00 PM;,,,,,,,-98.5224,29.534131,,Y,N,N,N,N,Y,Y,Y,Y,Y,Y,N,N,Y,Y,Y,N,Y,N,N,N,Y,Y,Y,N,N,Y,N,Y,N,Y,N,Y,N,N,10/17/15 9:46
1006849,Celebration Market in Sulphur Springs,http://www.sulphurspringsfarmersmarket.com,https://www.facebook.com/SulphurSpringsMarket,,,,Celebration Plaza ,Sulphur Springs,Hopkins,Texas,75482,05/01/2016 to 09/24/2016,Sat: 6:00 PM-10:00 PM;,,,,,,,-95.6009552,33.1382484,,Y,N,N,N,N,-,Y,Y,Y,Y,Y,N,Y,Y,Y,Y,N,Y,N,Y,Y,Y,Y,Y,Y,Y,Y,N,Y,N,N,N,N,N,Y,6/28/16 16:59
1018734,Celina's Friday Night Market,http://celinamarketonthesquare.com/,https://www.facebook.com/FridayNightMarketCelina/,,,https://www.instagram.com/celinafridaynightmarket/,142 N Ohio Street,Celina,Collin,Texas,75009,03/31/2017 to 11/03/2017,Fri: 6:00 PM-9:00 PM;,,,,,,,-96.7869845,33.3247511,,Y,N,N,N,N,-,Y,Y,Y,N,Y,N,Y,Y,Y,Y,N,Y,N,N,N,Y,Y,Y,N,Y,Y,N,Y,N,Y,Y,Y,N,N,7/26/17 15:03
1007167,Central Texas Farmers Market,,,,,,"2310 Bliss Spillar, Marbridge Ranch Nursery",Manchaca,Travis,Texas,78652,,,,,,,,,-97.8554,30.1364,,N,N,N,N,N,-,N,N,N,N,N,N,N,N,N,N,N,N,N,N,N,N,N,N,N,N,N,N,N,N,N,N,N,N,N,2009
1018809,Cibolo Grange Farmers & Artisans Market,,https://www.facebook.com/CiboloGrangeFarmersMarket/,,,,413 N Main Street,Cibolo,Guadalupe,Texas,78108,02/03/2017 to 12/28/2017,Thu: 3:00 PM-7:00 PM;,,,,,,,-98.2297673,29.5647022,,Y,N,N,N,N,-,Y,N,Y,N,Y,N,Y,Y,Y,Y,N,Y,N,N,N,N,N,Y,N,N,N,N,Y,N,N,Y,Y,N,N,8/8/17 17:27
1001485,City Hall Farmers Market,http://www.houstontx.gov/specialevents/,,,,,901 Bagby St.,Houston,Harris,Texas,77002,,,,,,,,,-95.3693,29.7602,Local government building grounds,N,N,N,N,N,-,Y,Y,N,Y,N,N,Y,Y,N,Y,N,N,N,Y,Y,N,Y,N,N,N,N,N,N,N,N,N,N,N,N,6/23/11 16:40
1011003,Colwell's Farmers Market,,https://www.facebook.com/colwellmarket,,,,9079 HWY377,Collinsville ,Cooke,Texas,76240,04/01/2015 to 11/01/2015,Mon: 9:00 AM-5:30 PM;Tue: 9:00 AM-5:30 PM;Wed: 9:00 AM-5:30 PM;Thu: 9:00 AM-5:30 PM;Fri: 9:00 AM-5:30 PM;Sat: 9:00 AM-5:30 PM;Sun: 10:00 AM-4:00 PM;,,,,,,,-96.9110998,33.5491175,,Y,N,N,N,Y,N,N,N,N,N,Y,N,N,Y,Y,Y,N,N,N,N,Y,N,N,Y,N,N,N,N,Y,N,N,N,N,N,N,7/1/16 18:55
1004237,Comfort Area Farmers Market,http://www.comfortchamberofcommerce.com/,,,,,427 Main at Highway 27 and Broadway,Comfort,Kendall,Texas,78013,April to August,Sat:8:00 AM - 12:00 PM;,,,,,,,-98.91297,29.96761,Local government building grounds,N,N,N,N,N,N,Y,N,Y,N,Y,N,N,Y,Y,Y,N,N,Y,N,Y,N,N,Y,N,N,N,N,N,N,N,N,N,N,N,5/8/12 14:12
1007154,Concho Valley Farmers Market,,,,,,609 South Oakes,San Angelo,Tom Green,Texas,76903,,,,,,,,,-100.432,31.4555,,N,N,N,N,N,-,N,N,N,N,N,N,N,N,N,N,N,N,N,N,N,N,N,N,N,N,N,N,N,N,N,N,N,N,N,2009
1000158,Coppell Farmers Market,http://www.coppellfarmersmarket.org,https://www.facebook.com/pages/Coppell-Farmers-Market/112423382177?ref=br_tf,https://twitter.com/coppellfm,,https://www.instagram.com/coppellfarmersmarket/,768 W. Main Street,Coppell,Dallas,Texas,75019,04/04/2015 to 11/30/2016,Sat: 8:00 AM-12:00 PM;,12/05/2015 to ,Sat: 8:00 AM-12:00 PM;,,,,,-97.007022,32.952867,,Y,N,N,N,Y,Y,Y,Y,Y,Y,Y,Y,Y,Y,Y,Y,N,Y,N,Y,Y,Y,Y,Y,N,N,Y,N,Y,Y,Y,Y,Y,N,Y,6/28/16 16:33
1007004,Copperas Cove Farmers Market,,,,,,1506 Veterans Ave.,Copperas Cove,Lampasas,Texas,76522,01/01/2014 to 12/31/2014,Wed: 3:00 PM-6:00 PM;Sat: 10:00 AM-2:00 PM;,,,,,,,-98.185,31.0708,,Y,N,N,N,N,-,N,N,N,N,N,N,N,N,N,N,N,N,N,N,N,N,N,N,N,N,N,N,N,N,N,N,N,N,N,12/17/14 13:59
1009650,Corpus Christi Downtown Farmers' Market,http://www.ccdowntownfm.com/,https://www.facebook.com/CorpusChristiDowntownFarmersMarket,https://twitter.com/ccdowntownfm,,,500 N. Mesquite,Corpus Christi,Nueces,Texas,78401,01/01/2014 to 12/31/2014,Wed: 5:00 PM-7:00 PM;,,,,,,,-97.395219,27.79667,,Y,N,N,N,Y,Y,Y,Y,Y,N,Y,Y,Y,Y,Y,Y,N,Y,N,N,Y,Y,Y,Y,N,N,Y,N,Y,N,N,N,N,N,N,3/25/15 14:06
1012666,Corpus Christi Downtown Farmers' Market,http://www.ccdowntownfm.com,https://www.facebook.com/CorpusChristiDowntownFarmersMarket/,https://twitter.com/ccdowntownfm,https://www.youtube.com/channel/UCYbRpp3vuRs5xLsbrB1ospA,https://www.instagram.com/ccdowntownfm/,100 N Shoreline Blvd,Corpus Christi ,Nueces,Texas,78401,01/01/2016 to 12/31/2016,Wed: 5:00 PM-8:00 PM;,,,,,,,-97.392539,27.791933,,Y,N,N,N,N,N,Y,Y,Y,Y,Y,N,Y,Y,Y,Y,N,Y,N,Y,N,Y,Y,Y,N,Y,Y,N,Y,Y,Y,Y,Y,N,Y,7/15/16 16:40
1003758,Corpus Christi Southside Farmers' Market,http://www.farmersmarketcc.org,https://www.facebook.com/CCFarmersMarket,,,,5800 Block on  Everhart Rd.,Corpus Christi,Nueces,Texas,78413,01/01/2015 to 12/31/2015,Sat: 9:00 AM-12:00 PM;,,,,,,,-97.391425,27.702789,,Y,N,N,N,Y,N,Y,Y,Y,N,Y,Y,Y,Y,Y,Y,N,Y,N,N,N,Y,Y,Y,Y,N,Y,N,Y,N,N,N,N,N,N,3/25/15 13:51
1012552,Cowtown Farmers Market,http://www.cowtownmarket.com,@cowtownfarmersmkt,,,,3821 SOUTHWEST BLVD,Fort Worth ,Tarrant,Texas,,01/01/2016 to 12/31/2016,Sat: 8:00 AM-12:00 PM;,06/01/2016 to 09/28/2016,Wed: 8:00 AM-12:00 PM;,,,,,-97.442048,32.716447,,Y,N,N,N,N,Y,Y,Y,N,Y,Y,N,Y,Y,Y,Y,N,Y,N,Y,Y,Y,Y,Y,N,N,N,N,Y,N,N,Y,Y,N,Y,7/20/16 11:56
1006197,Cross Timbers Food Cooperative,http://www.crosstimbers.locallygrown.net,,,,,,Denton,Denton,Texas,76201,,,,,,,,,-97.1331,33.2235,,N,N,N,N,N,-,N,N,N,N,N,N,N,N,N,N,N,N,N,N,N,N,N,N,N,N,N,N,N,N,N,N,N,N,N,May 13 2010  9:43PM
1007146,Cuero Farmers Market,,,,,,Cuero City Park Entrance,Cuero,Dewitt,Texas,77954,,,,,,,,,-97.1686,28.9695,,N,N,N,N,N,-,N,N,N,N,N,N,N,N,N,N,N,N,N,N,N,N,N,N,N,N,N,N,N,N,N,N,N,N,N,2009
1012749,Dallas Farmers Market,http://www.dallasfarmersmarket.org,https://www.facebook.com/DFMDallasFarmersMarket/,https://twitter.com/dallasfarmer,,https://www.instagram.com/dallasfarmersmarket/,920 S. Harwood Rd.,Dallas,Dallas,Texas,75201,01/01/2016 to ,Fri: 10:00 AM-5:00 PM;Sat: 8:00 AM-5:00 PM;Sun: 10:00 AM-5:00 PM;,01/01/2016 to 12/31/2016,Mon: 10:00 AM-6:00 PM;Tue: 10:00 AM-6:00 PM;Wed: 10:00 AM-6:00 PM;Thu: 10:00 AM-6:00 PM;Fri: 10:00 AM-6:00 PM;Sat: 10:00 AM-6:00 PM;Sun: 10:00 AM-6:00 PM;,,,,,-96.789378,32.777649,,Y,N,N,N,Y,Y,Y,Y,Y,Y,Y,Y,Y,Y,Y,Y,N,Y,N,Y,Y,Y,Y,Y,N,Y,Y,N,Y,Y,Y,Y,N,N,N,8/2/16 11:58
1007151,Deaf Smith Chamber of Commerce Farmers Market,,,,,,200 E. Park Avenue,Hereford,Deaf Smith,Texas,79045,,,,,,,,,-102.404,34.8221,,N,N,N,N,N,-,N,N,N,N,N,N,N,N,N,N,N,N,N,N,N,N,N,N,N,N,N,N,N,N,N,N,N,N,N,2009
1009013,Denton Community Market,http://www.dentonmarket.org,https://www.facebook.com/DentonCommunityMarket,https://twitter.com/DentonMarket,,http://instagram.com/communitymarket,317 W. Mulberry St,Denton,Denton,Texas,76201,04/06/2013 to 11/30/2013,Sat: 9:00 AM-1:00 PM;,04/05/2014 to 11/29/2014,Sat: 9:00 AM-1:00 PM;,04/04/2015 to 11/28/2015,Sat: 9:00 AM-1:00 PM;,,,-97.136403,33.213199,,Y,N,N,N,N,Y,Y,Y,Y,Y,Y,N,Y,Y,Y,Y,N,Y,N,N,Y,Y,Y,Y,N,N,Y,N,Y,N,Y,N,Y,Y,N,7/28/15 11:04
1008815,Downtown Arlington Farmers Market,http://WWW.downtownarlingtonfarmersmarket.com,https://www.facebook.com/downtownarlingtonfarmersmarket,,,,215 E Front Street,Arlington ,Tarrant,Texas,76010,01/01/2013 to 12/31/2013,Fri: 8:00 AM-1:00 PM;Sat: 8:00 AM-1:00 PM;,01/02/2014 to 12/31/2014,Fri: 8:00 AM-1:00 PM;Sat: 8:00 AM-1:00 PM;,,,,,-97.104737,32.737817,Other,Y,N,N,N,N,N,Y,N,Y,N,Y,N,N,Y,Y,Y,N,Y,N,N,N,Y,N,Y,N,N,N,N,Y,N,N,N,N,N,N,7/2/13 18:24
1009176,Downtown Buda Farmers Market ,,https://www.facebook.com/dbfma,,,,121 N. Main Street,Buda,,Texas,78610,,,,,,,,,-97.8433,30.0811,,Y,N,N,N,N,-,N,N,N,N,N,N,N,N,N,N,N,N,N,N,N,N,N,N,N,N,N,N,N,N,N,N,N,N,N,2013
1000841,Downtown Denison Farmers Market,http://www.downtowndenisonfarmersmarket.com,https://www.facebook.com/denison.farmermarket?fref=ts,,,Downtown Denison Farmers Market (FaceBook business page),400 West Chestnut,Denison,Grayson,Texas,75020,04/27/2013 to 10/26/2013,Wed: 3:00 PM-6:00 PM;Sat: 9:00 AM-12:00 PM;,,,,,,,-96.540384,33.754246,Private business parking lot,Y,N,N,N,N,Y,Y,N,Y,Y,Y,N,Y,Y,Y,Y,N,Y,N,Y,Y,N,N,Y,N,N,Y,N,Y,N,N,Y,N,N,N,4/21/14 15:20
1004902,Downtown Farmers Market I,,,,,,600 W. Rosedale,Fort Worth,Tarrant,Texas,76141,,,,,,,,,-97.3308,32.7332,,N,N,N,N,N,-,N,N,N,N,N,N,N,N,N,N,N,N,N,N,N,N,N,N,N,N,N,N,N,N,N,N,N,N,N,2009
1004901,Downtown Farmers Market II,,,,,,4800 S. Hulen Street,Fort Worth,Tarrant,Texas,76141,,,,,,,,,-97.3962,32.6769,,N,N,N,N,N,-,N,N,N,N,N,N,N,N,N,N,N,N,N,N,N,N,N,N,N,N,N,N,N,N,N,N,N,N,N,2009
1004900,Downtown Farmers Market III,,,,,,8101 Camp Bowie,Fort Worth,Tarrant,Texas,76141,,,,,,,,,-97.4555,32.7235,,N,N,N,N,N,-,N,N,N,N,N,N,N,N,N,N,N,N,N,N,N,N,N,N,N,N,N,N,N,N,N,N,N,N,N,2009
1011952,Downtown Farmers' Market Victoria,http://Downtownfarmersmarketvictoria.org,VictoriaDowntownFarmersMarket,VictoriaDTFM,,IG: VictoriaDTFM,101 N Main St,Victoria,Victoria,Texas,77901,04/09/2016 to 11/19/2016,Sat: 9:00 AM-1:00 PM;,10/01/2016 to 07/21/2017,Sat: 9:00 AM-1:00 PM;,,,,,-97.006456,28.799726,,Y,N,N,N,Y,N,Y,N,N,Y,Y,N,Y,Y,Y,Y,N,Y,N,Y,Y,N,Y,Y,Y,Y,N,N,Y,N,N,N,N,N,N,7/8/16 11:08
1016834,Downtown Forney Artisan & Farmers Market,http://www.downtownforneymarket.com,https://www.facebook.com/DowntownForneyArtisanandFarmersMarket/,https://twitter.com/Forney2ndSat,,,210 E. Broad St.,Forney,Kaufman,Texas,75126,03/11/2017 to 11/11/2017,Sat: 9:00 AM-2:00 PM;,,,,,,,-96.4694,32.7478614,,Y,N,N,N,N,-,Y,N,Y,Y,Y,N,N,Y,Y,Y,N,Y,N,N,Y,N,Y,Y,N,N,Y,N,Y,N,N,N,N,N,Y,2/15/17 14:01
1012390,Downtown Waxahachie Farmers Market,http://www.waxahachie.com/Departments/DowntownDevelopment/DowntownFarmersMarket,https://www.facebook.com/DowntownWaxahachieFarmersMarket/?ref=bookmarks,,,,410 S. Rogers,Waxahachie ,Ellis,Texas,75165,04/16/2016 to 10/29/2016,Sat: 8:00 AM-1:00 PM;,,,,,,,-96.8501028,32.3832651,,Y,N,N,N,N,-,Y,Y,Y,Y,Y,N,Y,Y,Y,Y,N,Y,N,Y,Y,N,Y,Y,N,N,Y,N,Y,Y,Y,N,N,N,N,7/10/16 20:43
1011876,Downtown Wichita Falls Farmers Market,http://downtownproud.com/downtown-wichita-falls-farmers-market/,https://www.facebook.com/DowntownWFFarmersMarket/,,,https://www.instagram.com/wichitafallsfarmersmarket/,713 Ohio Ave.,Wichita Falls,Wichita,Texas,76301,05/07/2016 to 10/08/2016,Tue: 7:30 AM-1:00 PM;Thu: 7:30 AM-1:00 PM;Sat: 7:30 AM-1:00 PM;,,,,,,,-98.489528,33.913521,,Y,N,Y,Y,N,-,Y,Y,Y,Y,Y,N,Y,Y,Y,Y,N,Y,N,N,N,N,N,Y,N,Y,N,N,Y,N,N,N,N,N,N,4/15/16 16:57
1012665,Dripping Springs Farmers Market,http://cityofdrippingsprings.com,Dripping Springs Farmers Market - Official,,,instagram,140 East Mercer Street,Dripping Springs ,Hays,Texas,78620,01/01/2016 to 12/31/2016,Wed: 3:00 PM-7:00 PM;,,,,,,,-98.0864453,30.1922992,,Y,N,N,N,N,Y,Y,Y,Y,Y,Y,N,Y,Y,Y,Y,N,Y,N,Y,N,Y,Y,Y,N,Y,Y,N,Y,N,N,Y,Y,N,N,7/15/16 16:43
1011673,East End Market,http://eastendfoundation.org,https://www.facebook.com/eastendfarmersmarket/,https://twitter.com/eestreetmarket,https://www.youtube.com/channel/UCuxUc9s2vRLeyAI7PdRY6yQ,,2600 Navigation Blvd.,Houston,Harris,Texas,77003,01/01/2015 to 12/31/2015,Sun: 10:00 AM-2:00 PM;,01/03/2016 to 12/18/2016,Sun: 10:00 AM-2:00 PM;,,,,,-95.342978,29.757511,,Y,N,N,N,Y,N,Y,Y,Y,Y,Y,Y,Y,Y,Y,Y,N,Y,N,Y,Y,Y,Y,Y,N,Y,Y,N,Y,N,Y,Y,Y,N,N,7/16/16 1:40
1007162,East Texas Farmers Market,,,,,,1836 S. Jackson,Jacksonville,Cherokee,Texas,75766,,,,,,,,,-95.3009,32.2981,,N,N,N,N,N,-,N,N,N,N,N,N,N,N,N,N,N,N,N,N,N,N,N,N,N,N,N,N,N,N,N,N,N,N,N,2009
1009904,East Texas State Fair Farmers Market,http://www.etstatefair.com/p/Get-Involved/193,https://www.facebook.com/etstatefair,https://twitter.com/ETSFarmerMarket,,,2112 W. Front St. (South Pavilion) ,Tyler,Smith,Texas,75702,05/03/2014 to 07/26/2014,Tue: 7:00 AM-1:00 PM;Sat: 7:00 AM-1:00 PM;,,,,,,,-95.324795,32.344227,,Y,Y,N,N,N,-,Y,N,Y,Y,Y,N,Y,Y,N,Y,N,N,N,N,Y,N,N,Y,N,N,N,N,Y,Y,N,N,N,N,N,6/28/16 8:51
1009164,Eden's Organic Garden Center ,,https://www.facebook.com/cityofedgewaterfamersmarket,,,,4710 Pioneer Road,Balch Springs ,,Texas,75180,,,,,,,,,-96.6011,32.7062,,Y,N,N,N,N,-,N,N,N,N,N,N,N,N,N,N,N,N,N,N,N,N,N,N,N,N,N,N,N,N,N,N,N,N,N,2013
1012664,El Centro de Laredo Farmers Market,http://laredomainstreet.org/,laredomainstreet,laredomainstreet,,Instagram: laredomainstreet,1301 Farragut St.,Laredo,Webb,Texas,78040,01/01/2016 to 12/31/2016,Sat: 9:00 AM-1:00 PM;,,,,,,,-99.508713,27.505348,,Y,Y,N,Y,Y,Y,Y,N,N,Y,Y,Y,Y,Y,Y,Y,N,Y,N,Y,Y,Y,Y,Y,Y,N,Y,N,Y,N,Y,N,Y,N,Y,7/15/16 16:10
1018716,El Paso Downtown Artist and Farmers Market ,http://mcad.elpasotexas.gov/art-and-farmers-market,https://www.facebook.com/EPDowntownArtistMarket/,https://twitter.com/mcadelpaso,,https://www.instagram.com/epdafm/,117 Anthony,El Paso,El Paso,Texas,79901,01/01/2017 to 12/31/2017,Sat: 9:00 AM-1:00 PM;,,,,,,,-106.494288,31.756883,,Y,N,N,N,Y,N,Y,Y,Y,Y,Y,N,Y,Y,Y,Y,N,Y,N,Y,Y,N,Y,Y,Y,N,Y,Y,Y,N,Y,Y,Y,Y,Y,7/19/17 19:43
1007185,El Paso Farmers Market,,,,,,6375 Montana,El Paso,El Paso,Texas,79902,,,,,,,,,-106.406,31.7885,,N,N,N,N,N,-,N,N,N,N,N,N,N,N,N,N,N,N,N,N,N,N,N,N,N,N,N,N,N,N,N,N,N,N,N,2009
1007164,El Paso Farmers Market I,,,,,,816 S. Florence,El Paso,El Paso,Texas,79902,,,,,,,,,-106.481,31.753,,N,N,N,N,N,-,N,N,N,N,N,N,N,N,N,N,N,N,N,N,N,N,N,N,N,N,N,N,N,N,N,N,N,N,N,2009
1007161,El Paso Growers Association I,,,,,,9484 Dyer Street,El Paso,El Paso,Texas,79902,,,,,,,,,-106.421,31.881,,N,N,N,N,N,-,N,N,N,N,N,N,N,N,N,N,N,N,N,N,N,N,N,N,N,N,N,N,N,N,N,N,N,N,N,2009
1007150,El Paso Growers Association III,,,,,,1120 McRae,El Paso,El Paso,Texas,79902,,,,,,,,,-106.355,31.7608,,N,N,N,N,N,-,N,N,N,N,N,N,N,N,N,N,N,N,N,N,N,N,N,N,N,N,N,N,N,N,N,N,N,N,N,2009
1007155,El Paso Growers Association IV,,,,,,655 Sunland Park Drive,El Paso,El Paso,Texas,79902,,,,,,,,,-106.541,31.8198,,N,N,N,N,N,-,N,N,N,N,N,N,N,N,N,N,N,N,N,N,N,N,N,N,N,N,N,N,N,N,N,N,N,N,N,2009
1007175,El Pason Farmers Market II,,,,,,411 N. Zaragosa Road,El Paso,El Paso,Texas,79902,,,,,,,,,-106.323,31.7011,,N,N,N,N,N,-,N,N,N,N,N,N,N,N,N,N,N,N,N,N,N,N,N,N,N,N,N,N,N,N,N,N,N,N,N,2009
1018765,Ennis Farmers Market,https://www.facebook.com/ennistxfarmersmarket/,https://www.facebook.com/ennistxfarmersmarket/?ref=bookmarks,,,@ennisfarmersmarket,100 N. Dallas St,Ennis ,Ellis,Texas,75119,04/01/2017 to 10/28/2017,Sat: 8:00 AM-1:00 PM;,,,,,,,-96.628311,32.327575,,Y,N,N,N,N,-,Y,N,Y,Y,Y,N,Y,Y,Y,N,Y,Y,N,N,Y,N,Y,Y,Y,N,N,N,Y,N,N,N,N,N,N,8/2/17 17:59
1008078,Farmer's and Artisan's Market at the Legacy,,https://www.facebook.com/FarmersAndArtisansMarketAtTheLegacy?ref=tn_tnmn,,,,1902 North Loop 1604 E. ( Next to the Amusement Center),San Antonio,Bexar,Texas,78259,01/01/2013 to 12/31/2013,Sun: 9:00 AM-2:00 PM;,,,,,,,-98.466205,29.609803,Private business parking lot,Y,N,N,N,N,-,Y,N,N,N,Y,N,N,Y,Y,Y,N,Y,N,N,Y,N,Y,Y,N,N,N,N,Y,N,N,N,N,N,N,6/11/13 16:24
1009403,Farmers Market ,http://www.localharvest.org/farmers-market-M38657,,,,,14411 State Highway 31 E,Brownsboro,,Texas,75756,,,,,,,,,-95.6143,32.3027,,Y,N,N,N,N,-,N,N,N,N,N,N,N,N,N,N,N,N,N,N,N,N,N,N,N,N,N,N,N,N,N,N,N,N,N,2013
1009340,"Farmers Market - Clyde, Texas ",http://www.localharvest.org/farmers-market-clyde-texas-M50854,,,,,North First Street,Clyde,,Texas,79510,,,,,,,,,-99.4975,32.4067,,Y,N,N,N,N,-,N,N,N,N,N,N,N,N,N,N,N,N,N,N,N,N,N,N,N,N,N,N,N,N,N,N,N,N,N,2013
1009343,"Farmers Market - Greenville, TX ",http://www.greenvillefarmersmarket.com/,,,,,"Market Square, East Lee Street at Bois d'Arc",Greenville,,Texas,75401,,,,,,,,,-96.1089,33.1399,,Y,N,N,N,N,-,N,N,N,N,N,N,N,N,N,N,N,N,N,N,N,N,N,N,N,N,N,N,N,N,N,N,N,N,N,2013
1005045,Farmers Market at Imperial,http://www.imperialsugarland.com/farmersmarket,https://www.facebook.com/FarmersMarketAtImperial,,,,198 Kempner Street,Sugar Land,Fort Bend,Texas,77498,01/01/2014 to 12/31/2014,Sat: 9:00 AM-1:00 PM;,,,,,,,-95.637714,29.619915,Private business parking lot,Y,N,N,N,N,Y,Y,Y,Y,Y,Y,Y,Y,Y,Y,Y,Y,Y,N,Y,Y,Y,Y,Y,Y,Y,Y,N,Y,N,N,N,N,N,N,4/16/14 15:17
1007187,Farmers Market at LaCenterra,,,,,,23501 Cinco Ranch Boulevard,Katy,Fort Bend County,Texas,,,,,,,,,,-95.7757,29.7431,,N,N,N,N,N,-,N,N,N,N,N,N,N,N,N,N,N,N,N,N,N,N,N,N,N,N,N,N,N,N,N,N,N,N,N,2011
1009439,Farmers Market in Denison ,http://www.localharvest.org/farmers-market-in-denison-M31921,,,,,1 block west of Main St.,Denison,,Texas,75090,,,,,,,,,-96.5269,33.755,,Y,N,N,N,N,-,N,N,N,N,N,N,N,N,N,N,N,N,N,N,N,N,N,N,N,N,N,N,N,N,N,N,N,N,N,2013
1009409,Farmers Market of Grapevine ,http://www.farmersmarketofgrapevine.com/Grapevine_Farmers_Market.html,,,,,325 S Main Street,Grapevine,,Texas,76051,,,,,,,,,-97.0781,32.9382,,Y,N,N,N,N,-,N,N,N,N,N,N,N,N,N,N,N,N,N,N,N,N,N,N,N,N,N,N,N,N,N,N,N,N,N,2013
1010320,Farmers Market On Grand Parkway,http://www.farmersmarketongrandparkway.com,https://www.facebook.com/farmersmarketongrandparkway,,,,1225 West Grand Parkway South,"Katy, Texas",Harris,Texas,77494,01/01/2016 to 12/31/2016,Sun: 8:00 AM-12:00 PM;,,,,,,,-95.775004,29.762524,,Y,N,N,N,N,Y,Y,N,Y,N,Y,Y,Y,Y,Y,Y,N,Y,N,N,Y,Y,Y,Y,N,N,Y,Y,Y,Y,Y,Y,Y,N,Y,7/6/16 13:50
1008327,Feast of Artisans Farmers Market,http://www.feastofartisans.com,https://www.facebook.com/pages/Feast-of-Artisans-a-market-of-fresh-local-produce-food-art/100340846738011,https://twitter.com/FeastofArtisans,,,1207 N. FM 3083 East,Conroe ,Montgomery,Texas,77303,,Fri: 4:00 PM-9:00 PM;,,,,,,,-95.432957,30.346584,Private business parking lot,Y,N,N,N,N,-,Y,N,Y,N,Y,N,Y,Y,N,Y,N,N,N,N,N,N,Y,Y,N,Y,Y,N,Y,N,N,N,N,N,N,5/19/14 19:24
1000396,Four Seasons Market - Richardson,http://www.fourseasonsmarkets.com,,,,,677 W. Campbell Rd,Richardson,Dallas,Texas,75080,June to August,Sat:9:00 AM - 2:00 PM;,January to November,Sat:10:00 AM - 3:00 PM;,,,,,-96.743052,32.977879,Private business parking lot,Y,N,N,N,N,N,Y,Y,Y,Y,Y,N,Y,Y,Y,Y,N,Y,Y,Y,Y,N,N,Y,Y,Y,N,N,N,N,N,N,N,N,N,4/30/12 17:20
1004606,"Fredericksburg Farmers Market, Fredericksburg TX",http://www.fredericksburgfarmersmarket.com,,,,,100 block West Main Street,Fredericksburg,Gillespie,Texas,78624,May to November,Thu:4:00 PM - 7:00 PM;,,,,,,,-98.873134,30.27608,Local government building grounds,Y,N,N,N,N,Y,Y,Y,N,N,Y,N,Y,Y,N,Y,N,Y,N,N,N,Y,Y,Y,N,Y,N,N,N,N,N,N,N,N,N,5/26/12 16:20
1011730,Friendswood Farmers Market,http://friendswoodmarket.com,https://www.facebook.com/FriendswoodMarket,,,,1100 S Friendswood Dr.,Friendswood,Galveston,Texas,77546,01/01/2015 to 12/31/2015,Sat: 8:00 AM-12:00 PM;,,,,,,,-95.191302,29.520767,,Y,N,N,N,N,Y,Y,N,N,N,Y,Y,Y,Y,Y,Y,N,Y,N,Y,Y,Y,Y,Y,Y,N,Y,N,Y,Y,Y,Y,Y,N,N,10/30/15 12:12
1010955,Frisco Rotary Farmers Market,http://www.friscorotaryfarmersmarket.com,https://www.facebook.com/FriscoRotaryFarmersMarket,,,,6048 Frisco Square Blvd,Frisco,Collin,Texas,75034,05/02/2015 to 10/17/2015,Sat: 8:00 AM-12:00 PM;,,,,,,,-96.832204,33.151201,,Y,N,N,N,N,-,Y,N,Y,N,Y,N,N,Y,Y,Y,N,N,N,Y,N,Y,N,Y,N,N,Y,N,Y,N,N,N,Y,N,Y,3/23/15 17:57
1004056,Galveston West End Market,,,,,,6511 Stewart Rd,Galveston,Galveston,Texas,77551,January to December,Sat:9:00 am - 1:00 pm;,,,,,,,-94.8349,29.2737,Private business parking lot,N,N,N,N,N,Y,Y,Y,Y,N,N,Y,Y,Y,Y,Y,N,Y,N,Y,Y,N,Y,Y,N,N,N,N,N,N,N,N,N,N,N,4/18/11 14:11
1009440,Galveston's Own Farmers Market ,,https://www.facebook.com/GalvestonsOwnFarmersMarket,,,,2508 Postoffice,Galveston,,Texas,,,,,,,,,,-94.7961,29.3039,,Y,N,N,N,N,-,N,N,N,N,N,N,N,N,N,N,N,N,N,N,N,N,N,N,N,N,N,N,N,N,N,N,N,N,N,2013
1002524,Gay Hill Farmer's Market,http://www.discounttreesofbrenham.com,https://www.facebook.com/discounttrees,,,,10050 Highway 36 North,Brenham,Washington,Texas,77833,05/04/2013 to 08/03/2013,Sat: 8:00 AM-12:00 PM;,,,,,,,-96.479015,30.276812,Private business parking lot,Y,N,N,N,N,-,Y,N,N,Y,Y,N,Y,Y,N,Y,N,N,N,N,N,N,N,Y,Y,N,N,N,Y,N,N,N,N,N,N,3/13/14 13:43
1008166,Georgetown Farmers Market,http://www.gtfma.com,https://www.facebook.com/pages/Georgetown-Farmers-Market-Assoc/195857010450938,,,,1525 W. University Ave ,Georgetown,Williamson,Texas,78628,01/01/2014 to 12/31/2014,Thu: 3:30 PM-6:30 PM;,,,,,,,-97.68575,30.561622,"Faith-based institution (e.g., church, mosque, synagogue, temple)",Y,N,N,N,N,-,Y,N,N,N,Y,N,Y,Y,Y,Y,N,Y,N,Y,N,Y,Y,Y,N,N,N,N,Y,N,N,N,N,N,N,3/31/14 15:57
1007731,Georgetown Farmers Market I,http://www.gtfma.com,,,,,Courthouse Square,Georgetown,Williamson,Texas,78626,,,,,,,,,-97.6769,30.6376,,N,N,N,N,N,-,N,N,N,N,N,N,N,N,N,N,N,N,N,N,N,N,N,N,N,N,N,N,N,N,N,N,N,N,N,2009
1007732,Georgetown Farmers Market II,http://www.gtfma.com,,,,,Sun City,Georgetown,Williamson,Texas,78626,,,,,,,,,-97.6782,30.6399,,N,N,N,N,N,-,N,N,N,N,N,N,N,N,N,N,N,N,N,N,N,N,N,N,N,N,N,N,N,N,N,N,N,N,N,2009
1007378,Golden Spread Farmers Market,http://www.goldenspreadfarmers.com,https://www.facebook.com/pages/Golden-Spread-Farmers-Market/121355639342,,,,15th & Pecos,Amarillo,Potter,Texas,79109,07/01/2014 to 10/30/2014,Tue: 7:00 AM-12:00 PM;Thu: 7:00 AM-12:00 PM;Sat: 7:00 AM-12:00 PM;,,,,,,,-101.877799,35.198927,Private business parking lot,N,N,N,N,N,-,Y,N,N,N,Y,N,N,Y,N,Y,N,Y,N,N,N,N,N,N,N,N,N,N,Y,N,N,N,N,N,N,5/13/14 8:35
1012510,Good Local Markets at Lakeside Farmers Market,http://www.goodlocalmarkets.org,Good Local Markets,,,,9150 Garland Road,Dallas,Dallas,Texas,75218,03/12/2016 to 12/10/2016,,,,,,,,-96.706935,32.829427,,Y,N,N,N,Y,-,Y,Y,Y,Y,Y,N,Y,Y,Y,Y,N,Y,N,Y,Y,Y,Y,Y,Y,N,Y,N,Y,Y,Y,Y,Y,N,N,7/12/16 20:26
1012509,Good Local Markets at Vickery Meadow,http://www.goodlocalmarkets.org,Good Local Markets,,,,5803 E. Northwest Highway,Dallas,Dallas,Texas,75231,04/03/2016 to 12/11/2016,Sun: 10:00 AM-3:00 PM;,,,,,,,-96.7647804,32.8661784,,Y,N,N,N,Y,-,Y,Y,Y,Y,Y,N,Y,Y,Y,Y,N,Y,N,Y,Y,Y,Y,Y,Y,N,N,N,Y,N,Y,Y,Y,N,N,7/12/16 20:17
1018308,Grand Prairie Farmers Market,http://GPTX.org/FarmersMarket,FB.com/FarmersMarketGP,@GrandFunGP,youtube.com/grandfungp,instagram.com/grandfungp,120 W Main St,Grand Prairie,Dallas,Texas,75050,03/01/2017 to 12/16/2017,Sat: 8:00 AM-1:00 PM;,,,,,,,-97.004543,32.7458227,,Y,N,N,N,N,-,Y,Y,Y,Y,Y,Y,Y,Y,Y,Y,Y,Y,N,Y,Y,Y,Y,Y,Y,Y,Y,Y,Y,Y,Y,Y,N,Y,Y,6/21/17 14:41
1000310,Green Gate Farms,http://www.greengatefarms.net,,,,,8310 Canoga Avenue,Austin,Travis,Texas,78724,,,,,,,,,-97.6353,30.285,,N,N,N,N,N,-,N,N,N,N,N,N,N,N,N,N,N,N,N,N,N,N,N,N,N,N,N,N,N,N,N,N,N,N,N,May  5 2010  7:11PM
1009190,Grow'n Growers Farmers Market ,,https://www.facebook.com/grow.n.growers,,,,"Firemen's Park, Corner of 1st Street & Bus 83",McAllen,,Texas,78501,,,,,,,,,-98.2193,26.2014,,Y,N,N,N,N,-,N,N,N,N,N,N,N,N,N,N,N,N,N,N,N,N,N,N,N,N,N,N,N,N,N,N,N,N,N,2013
1002079,Guadalupe Valley Gardener's Market,http://www.guadalupevalleygardenersmarket.com,,,,,510 E. Court Street,Seguin,Guadalupe,Texas,78155,,,,,,,,,-97.9609,29.5694,Private business parking lot,N,Y,N,N,N,-,N,N,N,N,N,N,N,Y,Y,N,N,N,N,N,N,N,N,N,N,N,N,N,N,N,N,N,N,N,N,6/28/13 20:12
1002080,Guadalupe Valley Gardener's Market,http://www.guadalupevalleygardenersmarket.com,,,,,100 E Donegan,Seguin,Guadalupe,Texas,78155,,,,,,,,,-97.9637,29.5679,Local government building grounds,N,Y,N,N,N,-,N,N,N,N,N,N,N,Y,Y,N,N,N,N,N,N,N,N,N,N,N,N,N,N,N,N,N,N,N,N,6/28/13 20:12
1011340,Handley Farmer's Market,http://HandleyFM.net,https://www.facebook.com/handleyfm,,,https://www.facebook.com/unhingedhomestead,7101 E Lancaster,Fort Worth,Tarrant,Texas,76112,,Fri: 8:00 AM-2:00 PM;Sat: 8:00 AM-2:00 PM;,,,,,,,-97.2072988,32.7303696,,Y,N,N,N,N,N,Y,Y,Y,N,Y,N,N,Y,Y,Y,Y,Y,N,N,N,N,Y,Y,N,Y,Y,N,Y,N,Y,Y,N,N,N,7/13/15 19:43
1018380,Harker Heights Farmers Market,http://www.ci.harker-heights.tx.us/index.php/programs-a-events/farmers-market,https://www.facebook.com/harkerheightspr/,,,,850 West Central Texas Expressway,Harker Heights,Bell,Texas,76548,05/06/2017 to 10/28/2017,Sat: 8:00 AM-1:00 PM;,,,,,,,-97.6831026,31.0727214,,Y,N,N,N,N,N,Y,N,Y,N,Y,N,Y,Y,Y,Y,N,Y,N,Y,N,Y,Y,Y,N,N,N,N,Y,Y,Y,N,Y,N,N,6/23/17 17:27
1009070,Harlingen Farmers Market,http://www.harlingenfarmersmarket.com,,,,,,Harlingen,Cameron,Texas,78550,,Sat: 3:00 PM-4:30 PM;,,,,,,,-97.696103,26.190631,Closed-off public street,N,N,N,N,N,-,Y,N,Y,N,Y,Y,Y,Y,N,Y,N,Y,N,Y,Y,N,N,Y,Y,N,N,N,N,N,N,N,N,N,N,2/7/14 13:47
1006540,HemisView Farmers' Market,http://www.safoodbank.org/index.php/programs/nutrition/farmers-market,www.facebook.com/SAHAFarmersMarket?ref=hl,,,,818 South Flores Street,San Antonio,Bexar,Texas,78204,03/14/2013 to 12/12/2013,Thu: 10:00 AM-1:00 PM;,,,,,,,-98.498636,29.414412,Other,Y,N,Y,Y,Y,N,Y,N,N,N,Y,N,Y,Y,N,Y,N,N,N,N,Y,N,Y,N,Y,N,N,N,Y,N,N,N,N,N,N,6/24/13 15:41
1001137,Hill Country Farmers Market Association,http://www.hillcountryfarmersmarket.org,,,,,13222 Bandera Road,Helotes,Bexar,Texas,78023,"April to November 4, 2011",,,,,,,,-98.6885,29.567,"Faith-based institution (e.g., church, mosque, synagogue, temple)",N,N,N,N,N,-,Y,Y,N,Y,N,Y,Y,Y,Y,Y,Y,Y,N,Y,Y,N,N,Y,N,N,N,N,N,N,N,N,N,N,N,4/21/11 15:46
1001138,Hill Country Farmers Market Association,http://www.hillcountryfarmersmarket.org,,,,,24133 Boerne Stage Road,San Antonio,Bexar,Texas,78255,January to December,Sat:8:30 am - 12:00 pm;,,,,,,,-98.6364,29.6653,"Faith-based institution (e.g., church, mosque, synagogue, temple)",N,N,N,N,N,-,Y,Y,N,Y,N,Y,Y,Y,Y,Y,Y,Y,N,Y,Y,N,Y,Y,N,N,N,N,N,N,N,N,N,N,N,4/21/11 15:46
1001139,Hill Country Farmers Market Association,http://www.hillcountryfarmersmarket.org,,,,,801 South Main Street,Boerne,Kendall,Texas,78006,"April to Sept 24, 2011",Sat:2:30 pm - 5:00 pm;,,,,,,,-98.7285,29.7857,Local government building grounds,N,N,N,N,N,-,Y,Y,N,Y,N,Y,Y,Y,Y,Y,Y,Y,N,Y,Y,N,N,Y,N,N,N,N,N,N,N,N,N,N,N,4/21/11 15:46
1002975,Historic Longview Farmers Market,http://www.historiclongviewfarmersmarket.com,https://www.facebook.com/pages/Historic-Longview-Farmers-Market/159774267392817,,,,105 West Cotton Street,Longview,Gregg,Texas,75605,03/15/2014 to 11/22/2014,Sat: 7:30 PM-11:30 PM;,,,,,,,-94.7408857,32.4940998,Other,Y,N,N,N,N,N,Y,Y,Y,Y,Y,N,Y,Y,Y,Y,N,Y,N,N,Y,Y,Y,Y,N,Y,N,N,Y,N,N,N,N,N,N,5/12/14 13:19
1000938,Historic McKinney Farmers Market at Chestnut Square Historic Village,http://www.mckinneyfarmersmarket.com,https://www.facebook.com/pages/McKinney-Farmers-Market/105274276195799,,,,315 S. Chestnut St.,McKinney,Collin,Texas,75069,04/05/2014 to 11/22/2014,Sat: 8:00 AM-12:00 PM;,,,,,,,-96.612976,33.193898,Other,Y,N,N,N,Y,Y,Y,Y,Y,Y,Y,N,Y,Y,Y,Y,N,Y,N,Y,Y,Y,Y,Y,Y,Y,Y,Y,Y,N,Y,Y,Y,N,N,3/14/14 12:16
1016836,HOPE Farmers Market,http://hopefarmersmarket.org/,https://www.facebook.com/HOPEMarketATX,https://twitter.com/hopemarketatx,,https://www.instagram.com/hopemarketatx/?hl=en,412 Comal Street,Austin,Travis,Texas,78703,01/01/2017 to 12/31/2017,Sun: 11:00 AM-3:00 PM;,,,,,,,-97.72728,30.262002,,Y,N,N,N,Y,Y,Y,N,Y,N,Y,N,Y,Y,N,Y,N,Y,N,Y,Y,Y,Y,Y,N,N,Y,Y,Y,N,Y,N,N,N,N,2/18/17 12:36
1006068,Houston Farmers Market,http://www.houstonfarmersmarket.org,,,,,3106 White Oak - Onion Creek Coffee House (Saturday),Houston,Harris,Texas,78233,,,,,,,,,-95.3912,29.7816,,N,N,N,N,N,-,N,N,N,N,N,N,N,N,N,N,N,N,N,N,N,N,N,N,N,N,N,N,N,N,N,N,N,N,N,2009
1005059,Huntsville Downtown Farmers Market,http://www.htxdowntownfarmersmarket.com,www.facebook.com/HuntsvilleMainStreet,,,,1100 University Avenue,Huntsville,Walker,Texas,77340,05/04/2013 to 07/27/2013,Sat: 8:00 AM-12:00 PM;,,,,,,,-95.550467,30.723087,Closed-off public street,N,N,N,N,N,-,Y,N,Y,Y,Y,N,Y,Y,Y,N,N,N,N,N,Y,N,Y,Y,Y,N,N,N,Y,N,N,N,N,N,N,6/17/13 9:50
1012218,Hutto Co-Op Market Nights,http://visithutto.com/231/CO-OP-Market-Nights,https://www.facebook.com/downtownhutto/,,,,420 US Hwy 79,Hutto,Williamson,Texas,78634,02/03/2016 to 11/30/2016,Wed: 5:00 PM-8:00 PM;,,,,,,,-97.550922,30.543434,,Y,N,N,N,N,-,Y,N,Y,N,Y,N,Y,Y,Y,Y,N,Y,N,Y,Y,Y,Y,Y,N,N,Y,N,Y,N,N,N,Y,N,N,7/5/16 9:05
1008212,jackie moreno city Waco,,jackielawson25@yahoo.com,,,,1015 Hogan Lane appt. 6,Waco,McLennan,Texas,76705,,,,,,,,,-97.105075,31.590965,Closed-off public street,Y,N,N,N,N,-,N,N,N,N,N,N,N,N,N,N,N,N,N,N,N,N,N,N,N,N,N,N,N,N,N,N,N,N,N,6/18/13 6:56
1006880,Jasper Farmers Market Association,http://www.jasper.agrilife.org/jasper-county-farmers-market/,,,,,Intersection of Hwys 190 and 96,Jasper,Jasper,Texas,75951,05/07/2016 to 11/12/2016,Sat: 8:00 AM-12:00 PM;,,,,,,,-93.995247,30.911375,,Y,N,N,N,N,N,Y,N,Y,Y,Y,N,Y,Y,Y,Y,N,N,N,Y,Y,N,N,Y,Y,N,N,N,Y,N,N,N,N,N,N,6/27/16 17:24
1003501,Jefferson County Master Gardeners,,,,,,S.E. Regional Airport,Nederland,Jefferson,Texas,77640,,,,,,,,,-93.9499,29.8912,,N,N,N,N,N,-,N,N,N,N,N,N,N,N,N,N,N,N,N,N,N,N,N,N,N,N,N,N,N,N,N,N,N,N,N,2009
1009831,Jim Wells County Farmers Market,,https://www.facebook.com/JWCFarmersMarket/,,,,1464 E. Main Street,Alice ,Jim Wells,Texas,78332,03/08/2014 to 11/08/2014,Sat: 9:00 AM-12:00 PM;,,,,,,,-98.056203,27.756638,Private business parking lot,N,N,N,N,N,-,Y,N,Y,N,Y,N,Y,Y,Y,Y,N,Y,N,N,N,Y,N,Y,N,N,N,N,Y,N,N,N,N,N,N,4/7/14 12:02
1018052,Keller Farmers Market,http://www.kellerfarmersmarket.com,https://www.facebook.com/KellerFarmersMarket/,https://twitter.com/KellerFarmersM,,https://www.instagram.com/kellerfarmersmarket/,1100 Bear Creek Parkway,Keller,Tarrant,Texas,76248,05/06/2017 to 10/28/2017,Sat: 8:00 AM-12:00 PM;,,,,,,,-97.227119,32.929763,,Y,N,N,N,Y,N,Y,Y,Y,Y,Y,N,Y,Y,Y,Y,N,Y,N,Y,Y,Y,Y,Y,N,N,Y,N,Y,N,Y,Y,N,Y,N,6/9/17 19:34
1005665,Kemah Farmers and Open Air Market,http://www.kemahfarmersmarket.com,https://www.facebook.com/KemahFarmersMarket,,,,204 FM 2094,Kemah,Galveston,Texas,77565,01/01/2013 to 12/31/2013,Sat: 8:00 AM-5:00 PM;,,,,,,,-95.0212,29.54093,Other,Y,N,N,N,N,-,Y,Y,Y,Y,Y,Y,N,Y,Y,Y,N,Y,N,N,Y,Y,Y,Y,Y,N,N,N,Y,N,N,N,N,N,N,7/19/13 0:12
1009072,Laguna Vista Farmers Market,,,,,,1 Golf House Road,Laguna Vista,Cameron,Texas,78578,,Tue: 4:00 PM-5:30 PM;,,,,,,,-97.309153,26.112261,Private business parking lot,N,N,N,N,N,-,Y,N,N,N,N,N,N,Y,N,N,N,N,N,N,N,N,N,N,N,N,N,N,N,N,N,N,N,N,N,2/7/14 16:55
1008432,Little Elm Farmers' Market,http://www.littleelm.org/FM,https://www.facebook.com/LittleElmFarmersMarket,https://twitter.com/LEFarmersMarket,,,Eldorado and FM 423,Little Elm,Denton,Texas,75068,05/10/2014 to 10/18/2014,Sat: 8:00 AM-12:00 PM;,,,,,,,-96.8873756,33.1782705,Private business parking lot,Y,N,N,N,N,-,Y,Y,Y,Y,Y,N,Y,Y,Y,Y,N,Y,N,N,Y,Y,Y,N,Y,N,N,N,Y,N,N,N,N,N,N,3/31/14 17:37
1006946,Livingston Farmers Market Co-op,,,,,,111 U.S. Highway 59 North Loop,Livingston,Polk,Texas,77351,,,,,,,,,-94.947,30.6733,,N,N,N,N,N,-,N,N,N,N,N,N,N,N,N,N,N,N,N,N,N,N,N,N,N,N,N,N,N,N,N,N,N,N,N,2009
1009312,Local Kerrville Farmers Market ,,https://www.facebook.com/pages/The-Local-Kerrville-Farmers-Market/180694945307394,,,,945 Barnett St. ,Kerrville,,Texas,78028,,,,,,,,,-99.1337,30.0474,,Y,N,N,N,N,-,N,N,N,N,N,N,N,N,N,N,N,N,N,N,N,N,N,N,N,N,N,N,N,N,N,N,N,N,N,2013
1009529,Locavore Farmers' Market ,http://www.localharvest.org/locavore-farmers-market-M43502,https://www.facebook.com/pages/Locavore-Farmers-Market/161905513835989,,,,11330 Louetta Rd. (United Methodist Church Parkign Lot) ,Houston,,Texas,77070,,,,,,,,,-95.5888,29.9979,,Y,N,N,N,N,-,N,N,N,N,N,N,N,N,N,N,N,N,N,N,N,N,N,N,N,N,N,N,N,N,N,N,N,N,N,2013
1009465,Lockhart Main Street Farmers' Market ,http://www.mainandmarket.wordpress.com/,https://www.facebook.com/MainStreetMarketLockhart,,,,217 South Main Street,Lockhart,,Texas,78644,,,,,,,,,-97.6721,29.8835,,Y,N,N,N,N,-,N,N,N,N,N,N,N,N,N,N,N,N,N,N,N,N,N,N,N,N,N,N,N,N,N,N,N,N,N,2013
1008179,Lone Star Farmers Market,http://www.lonestarfarmersmarket.com/,www.facebook.com/LoneStarFarmersMarket,https://twitter.com/LoneStar_Market,,,12611 Suite 100 Shops Parkway,Bee Cave,Travis,Texas,78738,01/01/2013 to 12/31/2013,Sun: 10:00 AM-2:00 PM;,,,,,,,-97.942188,30.30567,Private business parking lot,Y,Y,N,N,N,Y,Y,Y,Y,Y,Y,Y,Y,Y,Y,Y,Y,Y,N,N,Y,Y,Y,Y,Y,N,N,N,Y,N,N,N,N,N,N,6/17/13 12:26
1006539,Main Plaza Farmers' Market,http://www.safoodbank.org/index.php/programs/nutrition/farmers-market,www.facebook.com/pages/Main-Plaza-Farmers-Market/100347100038767,,,,115 Main Ave,San Antonio,Bexar,Texas,78205,03/05/2013 to 12/17/2013,Tue: 10:00 AM-1:00 PM;,,,,,,,-98.49381,29.42429,Other,Y,N,Y,Y,Y,N,Y,N,N,N,Y,N,Y,Y,N,N,N,N,N,N,Y,N,Y,N,Y,N,N,N,N,N,N,N,N,N,N,6/24/13 15:40
1010328,Mansfield Farmers Market,http://www.mansfieldtxfarmersmarket.com,http://www.facebook.com/mansfieldtxfarmersmarket,mansfieldtxfm,,,703 E. Broad St,Mansfield ,Tarrant,Texas,76063,04/22/2017 to 10/28/2017,Sat: 8:00 AM-1:00 PM;,,,,,,,-97.133918,32.564429,,Y,N,N,N,N,-,Y,Y,Y,N,Y,N,Y,Y,Y,Y,N,Y,N,Y,Y,Y,Y,Y,Y,N,Y,N,Y,N,N,N,N,N,N,1/25/17 19:17
1008834,"Market Square, Farmers Market",http://www.paristexas.gov/index.aspx?nid=319,https://www.facebook.com/pages/Market-Square-Farmers-Market-Paris-Texas/124927590924139,,,,400 1ST Street S.W.,"Paris, Texas",Lamar,Texas,75460,05/03/2014 to 10/25/2014,Mon: 8:00 AM-6:00 PM;Tue: 8:00 AM-6:00 PM;Wed: 8:00 AM-6:00 PM;Thu: 8:00 AM-6:00 PM;Fri: 8:00 AM-6:00 PM;Sat: 8:00 AM-12:00 PM;Sun: 0:00 AM-;,,,,,,,-95.557366,33.657897,Local government building grounds,Y,N,N,N,N,-,Y,Y,Y,Y,Y,N,N,Y,Y,Y,N,Y,N,N,Y,N,N,Y,N,Y,Y,N,Y,N,N,N,N,N,N,3/31/14 15:58
1009851,McAllen Farmers Market,http://mcallenfarmersmarket.com,https://www.facebook.com/McAllenFarmersMarket,https://twitter.com/McAFarmersMKT ,,,4001 N. 23rd St.,McAllen ,Hidalgo,Texas,78504,01/01/2016 to 12/31/2016,Sat: 10:00 AM-1:00 PM;,,,,,,,-98.2419797,26.2415968,,Y,Y,N,N,Y,Y,Y,N,Y,N,Y,N,Y,Y,Y,Y,N,Y,N,Y,Y,N,Y,Y,Y,N,N,N,Y,N,Y,N,N,N,N,7/14/16 20:05
1008841,Mercado Mayapan,http://www.mujerobrera.org,La Mujer Obrera,La Mujer Obrera ,,Mercado Mayapan Instagram,2000 Texas Ave,El Paso ,El Paso,Texas,79901,,,,,,,,,-106.467575,31.771173,Other,Y,N,N,N,Y,N,N,N,N,N,N,N,Y,Y,Y,Y,N,N,N,N,Y,N,N,N,N,N,N,N,Y,N,N,N,N,N,N,7/11/13 12:33
1012022,Midland Downtown Farmers' Market ,http://www.midlanddowntownfarmersmarket.com,https://www.facebook.com/Midland-Downtown-Farmers-Market-328008641051/,https://twitter.com/AtMDFM,https://www.youtube.com/channel/UCQNvDj-YnDU6OAuAO64VqYQ,,1705 W. Missouri,Midland ,Midland,Texas,79701,04/02/2016 to 10/29/2016,Sat: 8:30 AM-12:30 PM;,,,,,,,-102.0924129,31.993215,,Y,N,N,N,N,N,Y,Y,Y,N,Y,N,Y,Y,Y,Y,N,Y,N,Y,Y,N,Y,Y,N,N,Y,N,Y,Y,N,N,Y,N,N,6/26/16 8:53
1007156,Midtown Farmers Market,,,,,,3701 Travis Street,Houston,Harris,Texas,77002,,,,,,,,,-95.3664,29.7558,,N,N,N,N,N,-,N,N,N,N,N,N,N,N,N,N,N,N,N,N,N,N,N,N,N,N,N,N,N,N,N,N,N,N,N,2009
1007189,Moore County Farmers Market,,,,,,McDade Park,Dumas,Moore County,Texas,,,,,,,,,,-101.966,35.8503,,N,N,N,N,N,-,N,N,N,N,N,N,N,N,N,N,N,N,N,N,N,N,N,N,N,N,N,N,N,N,N,N,N,N,N,2011
1010276,Mount Vernon Farmers Market,,https://www.facebook.com/mountvernontxfarmersmarket?ref=hl,,,,100 Main Street,Mount Vernon,Franklin,Texas,75457,03/01/2014 to 11/01/2014,Sat: 7:00 AM-12:00 PM;,,,,,,,-95.2214646,33.1885572,Closed-off public street,N,N,N,N,N,-,Y,N,Y,N,Y,N,N,Y,Y,Y,Y,N,N,N,Y,N,Y,Y,Y,N,Y,Y,N,N,N,N,N,N,N,6/2/14 16:04
1004370,Mount Vernon Farmers Market - Non Festival Days,,https://www.facebook.com/mountvernontxfarmersmarket?fref=ts,,,,113 East Main St.,Mount Vernon,Franklin,Texas,75457,03/02/2013 to 11/30/2013,Mon: 8:30 AM-;Tue: 8:30 AM-;Wed: 8:30 AM-;Thu: 8:30 AM-;Fri: 8:30 AM-;Sat: 8:30 AM-;Sun: 8:30 AM-;,,,,,,,-95.221391,33.188902,Local government building grounds,N,N,N,N,N,-,Y,N,Y,N,Y,N,Y,Y,Y,Y,N,N,N,N,Y,N,N,Y,Y,N,N,N,Y,N,N,N,N,N,N,6/27/13 18:02
1011294,Nacogdoches Farmers Market,http://nacogdochesfarmersmarket.com,nacogdochesfarmersmarket,,,,107 West Pearl,Nacogdoches,Nacogdoches,Texas,75961,,Wed: 12:00 PM-5:00 PM;Sat: 8:00 AM-12:00 PM;,,,,,,,-94.6576128,31.6048456,,Y,N,N,N,N,-,Y,Y,Y,Y,Y,N,Y,Y,Y,Y,N,Y,N,Y,Y,Y,Y,Y,N,Y,Y,N,Y,N,Y,N,N,N,N,6/27/16 20:18
1009467,Natural Living Farmers Market ,http://www.nlfmarket.webs.com/,,,,,5702 Calhoun Road,Houston,,Texas,77021,,,,,,,,,-95.3458,29.7026,,Y,N,N,N,N,-,N,N,N,N,N,N,N,N,N,N,N,N,N,N,N,N,N,N,N,N,N,N,N,N,N,N,N,N,N,2013
1007160,Navarro County Farmers Market Association,,,,,,Business Route Highway 75 at 6th Avenue,Corsicana,Navarro,Texas,75110,,,,,,,,,-96.4597,32.0944,,N,N,N,N,N,-,N,N,N,N,N,N,N,N,N,N,N,N,N,N,N,N,N,N,N,N,N,N,N,N,N,N,N,N,N,2009
1009313,Navasota Farmers Market ,http://www.localharvest.org/navasota-farmers-market-M59065,,,,,310 E. Washington,Navasota,,Texas,77868,,,,,,,,,-96.088,30.3886,,Y,N,N,N,N,-,N,N,N,N,N,N,N,N,N,N,N,N,N,N,N,N,N,N,N,N,N,N,N,N,N,N,N,N,N,2013
1000930,New Braunfels Farmers Market,http://www.nbfarmersmarket.com,,,,,,New Braunfels,Comal,Texas,78130,,,,,,,,,-98.1249,29.7018,,N,N,N,N,N,-,N,N,N,N,N,N,N,N,N,N,N,N,N,N,N,N,N,N,N,N,N,N,N,N,N,N,N,N,N,Apr 19 2010  2:19PM
1007159,North Central Texas Farmers Market Corporation III,,,,,,325 S. Main Street,Grapevine,Tarrant,Texas,76051,,,,,,,,,-97.0783,32.9382,,N,N,N,N,N,-,N,N,N,N,N,N,N,N,N,N,N,N,N,N,N,N,N,N,N,N,N,N,N,N,N,N,N,N,N,2009
1004512,Northside Farmers Market,,,,,,North 3rd and Mesquite,Abilene,Taylor,Texas,79601,,,,,,,,,-99.7303,32.4513,,N,N,N,N,N,-,N,N,N,N,N,N,N,N,N,N,N,N,N,N,N,N,N,N,N,N,N,N,N,N,N,N,N,N,N,2009
1010277,NTCC Farmer's Market,http://www.ntcc.edu.ag/,https://www.facebook.com/groups/202823569872401/,,,,2886 FM 1735,Mount Pleasant ,Titus,Texas,75455,05/02/2014 to 11/07/2014,Fri: 9:00 AM-2:00 PM;,,,,,,,-94.877911,33.105936,Educational institution,Y,N,N,N,N,N,Y,Y,Y,Y,Y,N,Y,Y,Y,Y,N,Y,N,N,Y,Y,Y,Y,N,N,N,Y,Y,N,N,N,N,N,N,6/2/14 18:43
1006922,Old Town Business Association,,,,,,Poydras Street Plaza,Lewisville,Denton,Texas,,,,,,,,,,-96.9955,33.0463,,N,N,N,N,N,-,N,N,N,N,N,N,N,N,N,N,N,N,N,N,N,N,N,N,N,N,N,N,N,N,N,N,N,N,N,2009
1001938,Pearl Farmers Market,http://atpearl.com/farmers_market,https://www.facebook.com/pages/Pearl-Farmers-Market-San-Antonio-TX,https://twitter.com/PearlFM,,http://instagram.com/pearlfarmersmarket#,303 Pearl Parkway,San Antonio,Bexar,Texas,78215,01/01/2014 to 12/31/2014,Sat: 9:00 AM-1:00 PM;,,,,,,,-98.480184,29.442404,Other,Y,N,N,N,N,Y,Y,Y,N,Y,Y,Y,Y,Y,Y,Y,N,Y,N,Y,Y,Y,Y,Y,Y,Y,Y,Y,Y,N,N,Y,N,N,N,4/22/14 18:12
1000838,Pearland Old Townsite Farmers Market,http://www.PearlandOldTownsiteFarmersMarket.com,https://www.facebook.com/pages/Pearland-Old-Townsite-Farmers-Market/289653605918,,,,2243 Grand Blvd.,Pearland,Brazoria,Texas,77581,01/01/2014 to 12/13/2014,Sat: 8:00 AM-12:00 PM;,,,,,,,-95.2835,29.5658,Local government building grounds,Y,N,N,N,N,-,Y,Y,Y,Y,Y,N,Y,Y,Y,Y,Y,Y,N,Y,Y,Y,Y,Y,Y,N,Y,N,Y,Y,N,N,Y,N,N,4/3/14 15:13
1003984,Permian Basin Farmers Market,,,,,,5021 Princeton Street,Midland,Midland,Texas,79703,,,,,,,,,-102.15,31.9954,,N,N,N,N,N,-,N,N,N,N,N,N,N,N,N,N,N,N,N,N,N,N,N,N,N,N,N,N,N,N,N,N,N,N,N,2009
1001260,Pflugerville Pfarmers Market,http://www.pflugervilletx.gov/pfarmersmarket,,,,,901 Old Austin Hutto Road,Pflugerville,Travis,Texas,78660,05/03/2016 to 10/25/2016,Tue: 3:00 PM-7:00 PM;,,,,,,,-97.606001,30.442585,,Y,Y,Y,N,N,Y,Y,N,Y,N,Y,N,Y,Y,Y,Y,N,Y,N,Y,Y,Y,Y,Y,N,N,Y,N,Y,N,N,Y,Y,N,Y,6/27/16 16:14
1011733,Pharrmers Market,http://www.foodbankrgv.com/howwework-2/pharrmers-market,https://www.facebook.com/pharrmersmarket/?fref=ts,,,,724 N. Cage Blvd ,Pharr ,Hidalgo,Texas,78577,11/03/2016 to 05/25/2017,Thu: 10:00 AM-1:00 PM;,,,,,,,-98.1816051,26.2016033,,Y,Y,N,N,Y,-,Y,Y,Y,Y,Y,N,N,Y,Y,Y,N,N,N,Y,Y,N,Y,Y,Y,N,N,N,Y,Y,Y,N,N,N,Y,7/15/16 11:24
1004735,Quarry Farmers & Ranchers Market,http://www.quarryfarmersmarket.com,https://www.facebook.com/quarryfarmersmarket,https://twitter.com/quarryfm,,Instagram/quarryfarmersmarket,255 E Basse Road,San Antonio,Bexar,Texas,78209,01/06/2013 to 12/29/2013,Sun: 9:00 AM-1:00 PM;,,,,,,,-98.480976,29.494037,,Y,N,N,N,N,Y,Y,Y,N,Y,Y,N,Y,Y,Y,Y,N,Y,N,Y,Y,Y,Y,Y,Y,N,Y,N,Y,N,Y,N,Y,N,N,3/14/14 9:46
1007176,Red River Farmers Market,,,,,,101 E. Hatton Road,Wichita Falls,Wichita,Texas,76302,,,,,,,,,-98.4944,33.8677,,N,N,N,N,N,-,N,N,N,N,N,N,N,N,N,N,N,N,N,N,N,N,N,N,N,N,N,N,N,N,N,N,N,N,N,2009
1000732,Rice University Farmers Market,http://www.farmersmarket.rice.edu,,,,,2100 University Boulevard,Houston,Harris,Texas,77005,January to December,Tue:3:30 PM - 7:00 PM;,,,,,,,-95.410252,29.714855,Educational institution,Y,N,N,N,N,Y,Y,Y,N,Y,Y,N,Y,Y,Y,N,N,Y,Y,Y,N,Y,Y,Y,N,N,N,N,N,N,N,N,N,N,N,5/7/12 16:16
1009996,Richardson Farmers Market,http://www.fourseasonsmarkets.com,https://www.facebook.com/fourseasonsmarkets,https://twitter.com/4seasonsm,,,677 W. Campbell Rd,Richardson,Dallas,Texas,75080,01/01/2014 to 12/31/2014,Sat: 10:00 AM-3:00 PM;,,,,,,,-96.743055,32.977263,Private business parking lot,Y,N,N,N,N,Y,Y,Y,Y,N,Y,N,Y,Y,Y,Y,N,Y,N,Y,Y,Y,N,Y,Y,Y,Y,N,Y,N,Y,Y,N,N,N,4/22/14 12:40
1007784,"Ridgmar Farmers Market, Inc. I",http://www.ridgmarfm.com,,,,,900 Highway 183,Fort Worth,Tarrant,Texas,76141,,,,,,,,,-97.0659,32.8372,,N,N,N,N,N,-,N,N,N,N,N,N,N,N,N,N,N,N,N,N,N,N,N,N,N,N,N,N,N,N,N,N,N,N,N,2009
1007783,"Ridgmar Farmers Market, Inc. II",http://www.ridgmarfm.com,,,,,7601 Jacksboro Highway 199,Fort Worth,Tarrant,Texas,76141,,,,,,,,,-97.4583,32.8208,,N,N,N,N,N,-,N,N,N,N,N,N,N,N,N,N,N,N,N,N,N,N,N,N,N,N,N,N,N,N,N,N,N,N,N,2009
1010046,River Valley Farmers' Market,http://www.rivervalleyfarmersmarket.com,https://www.facebook.com/pages/River-Valley-Farmers-Market/108640892491933,,,,109 Depot Street,Elgin,Bastrop,Texas,78621,01/01/2014 to 12/31/2014,Sat: 9:00 AM-1:00 PM;,,,,,,,-97.370726,30.347313,Local government building grounds,Y,N,N,N,N,N,Y,N,Y,Y,Y,N,Y,Y,Y,Y,N,Y,N,Y,Y,Y,Y,Y,Y,N,Y,N,Y,Y,N,N,N,N,N,4/27/14 10:45
1007166,Rockport-Fulton Farmers Market,,,,,,301 DeForest Loop,Rockport-Fulton,Aransas,Texas,78382,,,,,,,,,-97.0335,28.0649,,N,N,N,N,N,-,N,N,N,N,N,N,N,N,N,N,N,N,N,N,N,N,N,N,N,N,N,N,N,N,N,N,N,N,N,2009
1009878,Rockwall Farmers Market,,https://www.facebook.com/pages/Rockwall-Farmers-Market/,https://twitter.com/rockwallFM,,,,Rockwall,Rockwall,Texas,,05/03/2014 to 09/27/2014,Sat: 8:00 AM-12:00 PM;,,,,,,,-96.4597089,32.9312336,Local government building grounds,N,N,N,N,N,-,Y,N,N,N,Y,Y,N,Y,Y,Y,N,Y,N,N,N,N,N,Y,Y,N,N,N,Y,N,N,N,Y,N,N,4/9/14 10:52
1010821,Rose City Farmers Market,http://www.facebook.com/rosecityfarmersmarket,,,,,7212 Old Jacksonville Hwy.,Tyler,Smith,Texas,75703,04/04/2015 to 11/28/2015,Sat: 9:00 AM-1:00 PM;,,,,,,,-95.3406678,32.2677828,,Y,Y,N,N,Y,N,Y,Y,Y,Y,Y,N,Y,Y,Y,Y,N,Y,N,Y,Y,Y,Y,Y,Y,N,Y,Y,Y,Y,N,Y,N,N,Y,2/12/15 15:17
1009420,Rosemeade Market & Greenhouse ,http://www.rosemeademarket.com/,,,,,3646 E Rosemeade Parkway,Carrollton,,Texas,75287,,,,,,,,,-96.8546,33.011,,Y,N,N,N,N,-,N,N,N,N,N,N,N,N,N,N,N,N,N,N,N,N,N,N,N,N,N,N,N,N,N,N,N,N,N,2013
1008172,Round Rock Farmers Market,http://www.gtfma.com,https://www.facebook.com/pages/Georgetown-Farmers-Market-Assoc/195857010450938,,,,300 W University Blvd,Round Rock,Williamson,Texas,78665,01/01/2014 to 12/31/2014,Sat: 9:00 AM-12:00 PM;,,,,,,,-97.68575,30.561622,Healthcare Institution,Y,N,N,N,N,-,Y,N,N,N,Y,N,Y,Y,Y,Y,N,Y,N,Y,N,Y,Y,Y,N,N,N,N,Y,N,N,N,N,N,N,3/31/14 15:54
1006982,Round Top Farmers Market Association,,,,,,102 Main Street,Round Top,Fayette,Texas,78954,,,,,,,,,-96.7556,30.0549,,N,N,N,N,N,-,N,N,N,N,N,N,N,N,N,N,N,N,N,N,N,N,N,N,N,N,N,N,N,N,N,N,N,N,N,2009
1009840,SAHA Farmers' Market,http://www.safoodbank.org/index.php/programs/nutrition/farmers-market,https://www.facebook.com/SAHAFarmersMarket,,,,818 South Flores Street,San Antonio,Bexar,Texas,78210,03/13/2014 to 12/11/2014,Thu: 10:00 AM-1:00 PM;,,,,,,,-98.498783,29.414706,Private business parking lot,Y,Y,N,Y,Y,N,Y,N,N,N,Y,N,Y,Y,N,N,N,Y,N,N,Y,N,Y,Y,N,N,Y,N,Y,N,Y,N,N,N,N,4/7/14 15:57
1007397,Saint Michael's Farmers Market,http://www.saintmichaelsmarket.com,https://www.facebook.com/saintmichaelsmarket,https://twitter.com/stmikesmarket,,,8011 Douglas Ave.,Dallas,Dallas,Texas,75225,04/11/2015 to 08/29/2015,Sat: 8:00 AM-12:00 PM;,,,,,,,-96.809345,32.860727,,Y,N,N,N,N,-,Y,Y,N,N,Y,Y,Y,Y,Y,Y,N,Y,N,Y,N,Y,Y,Y,N,N,Y,N,Y,N,Y,N,N,N,N,3/20/15 15:18
1004520,San Antonio Farmers Market Association - Leon Valley,http://www.SanAntonioFarmersMarket.org,,,,,6427 Evers Rd.,Leon Valley,Bexar,Texas,78238,,Wed: 8:00 AM-1:00 PM;,,,,,,,-98.613282,29.5007767,Local government building grounds,Y,N,Y,Y,Y,N,N,N,N,N,Y,N,N,Y,Y,N,N,N,N,N,Y,N,N,N,N,N,N,N,Y,N,N,N,N,N,N,6/26/13 19:52
1004519,San Antonio Farmers Market at St. Matthews,http://www.SanAntonioFarmersMarket.org,,,,,11121 Wurzbach,San Antonio,Bexar,Texas,78230,01/04/2013 to 12/27/2013,Fri: 8:00 AM-1:00 PM;,,,,,,,-98.550282,29.543276,"Faith-based institution (e.g., church, mosque, synagogue, temple)",Y,N,Y,Y,Y,N,N,N,N,N,Y,N,N,Y,Y,Y,N,Y,N,N,Y,N,N,N,N,N,N,N,Y,N,N,N,N,N,N,6/26/13 19:50
1004522,San Antonio Farmers Market Olmos Basin,http://www.SanAntonioFarmersMarket.org,,,,,100 Jackson Keller,San Antonio,Bexar,Texas,78216,01/01/2014 to 12/31/2014,Tue: 8:00 AM-1:00 PM;Sat: 8:00 AM-1:00 PM;,,,,,,,-98.4947323,29.4943094,Local government building grounds,Y,N,Y,Y,Y,N,Y,N,N,N,Y,N,Y,Y,Y,Y,N,Y,N,Y,Y,N,N,N,N,N,N,N,Y,N,N,N,N,N,N,3/20/14 10:42
1007789,San Antonio Food Bank Farmers' Market Association,http://www.safoodbank.org/index.php/programs/nutrition/farmers-market,,,,,"111 Soledad Street, #811",San Antonio,Bexar County,Texas,,,,,,,,,,-98.4928,29.4255,,N,N,N,N,N,-,N,N,N,N,N,N,N,N,N,N,N,N,N,N,N,N,N,N,N,N,N,N,N,N,N,N,N,N,N,2011
1004612,San Marcos/New Braunfels Farmers Market Association,http://www.sanmarcosfarmersmarket.com,https://www.facebook.com/smtxfarmersmarket,,,,104 C.M. Allen Parkway,San Marcos,Hays,Texas,78666,,,,,,,,,-97.937531,29.881728,Private business parking lot,Y,N,N,N,N,-,N,N,N,N,Y,N,N,N,N,N,N,N,N,N,N,N,N,N,Y,N,N,N,N,N,N,N,N,N,N,6/12/13 14:36
1004613,San Marcos/New Braunfels Farmers Market Association,http://www.sanmarcosfarmersmarket.com,https://www.facebook.com/smtxfarmersmarket,,,,100 San Antonio st,San Marcos,Hays,Texas,78666,,,,,,,,,-97.940672,29.882251,Closed-off public street,N,N,N,N,N,-,N,N,N,N,Y,N,N,N,N,N,N,N,N,N,N,N,N,N,Y,N,N,N,N,N,N,N,N,N,N,6/12/13 14:07
1009525,Sassy Pea Market/Good Earth Petting Farm (at The Good Earth Day School) ,http://www.sassypeamarket.com/,https://www.facebook.com/SassyPeaMarket?fref=ts,,,,10820 East Crystal Falls Parkway,Leander,,Texas,78641,,,,,,,,,-97.8185,30.565,,Y,N,N,N,N,-,N,N,N,N,N,N,N,N,N,N,N,N,N,N,N,N,N,N,N,N,N,N,N,N,N,N,N,N,N,2013
1002078,Seguin Farmers and Artisans Market,http://www.centraltexasgrowers.org/,https://www.facebook.com/SeguinFarmersAndArtisansMarket,,,,510 Fleming,Seguin,Guadalupe,Texas,78155,01/01/2013 to 12/31/2013,Mon: 3:00 PM-6:00 PM;,,,,,,,-97.987168,29.570966,Educational institution,Y,N,N,N,N,-,N,N,Y,N,Y,N,N,Y,Y,N,N,Y,N,N,N,Y,N,N,N,N,N,N,N,N,N,N,N,N,N,6/28/13 20:21
1000330,SEIGLER FARMS,,,,,,8th and Ohio Streets,Wichita Falls,Wichita,Texas,76301,May to August,Tue:7:30 AM - 1:00 PM;Thu:7:30 AM - 1:00 PM;Sat:7:30 AM - 1:00 PM;,,,,,,,-98.4897756,33.9132018,Local government building grounds,N,N,Y,Y,N,-,N,N,N,N,N,N,N,Y,N,N,N,N,N,N,N,N,N,N,N,N,N,N,N,N,N,N,N,N,N,5/12/12 11:27
1000331,SEIGLER FARMS,,,,,,Omega and Main Streets,Henrietta,Clay,Texas,76365,,,,,,,,,-98.1963,33.8148,Private business parking lot,N,N,Y,Y,N,-,N,N,N,N,N,N,N,N,N,N,N,N,N,N,N,N,N,N,N,N,N,N,N,N,N,N,N,N,N,6/28/13 22:30
1018061,SFC Farmers' Market at Sunset Valley,http://sustainablefoodcenter.org/programs/sfc-farmers-market/sfc-farmers-market-at-sunset-valley,https://www.facebook.com/SFCFarmersMarket/,https://twitter.com/SFClocal,https://www.youtube.com/user/SFCLocal,https://www.instagram.com/sfclocal/,3200 Jones Road,Sunset Valley ,Travis,Texas,78745,01/01/2017 to 12/31/2017,Sun: 9:00 AM-1:00 PM;,,,,,,,-97.806601,30.230662,,Y,Y,Y,N,Y,Y,Y,Y,Y,Y,Y,Y,Y,Y,Y,Y,N,Y,N,Y,N,Y,Y,Y,N,N,Y,N,Y,N,Y,Y,N,N,Y,6/13/17 17:27
1018064,SFC Farmers' Market at the Triangle,http://sustainablefoodcenter.org/programs/sfc-farmers-market/sfc-farmers-market-at-the-triangle,https://www.facebook.com/SFCFarmersMarket/,https://twitter.com/SFClocal,https://www.youtube.com/user/SFCLocal,https://www.instagram.com/sfclocal/,4600 Lamar,Austin,Travis,Texas,78723,01/01/2017 to 12/31/2017,Wed: 3:00 PM-7:00 PM;,,,,,,,-97.733906,30.314267,,Y,Y,Y,N,Y,Y,Y,N,N,Y,Y,N,N,Y,N,N,N,Y,N,N,N,Y,Y,N,N,N,Y,N,Y,N,N,Y,N,N,N,6/13/17 17:49
1018065,SFC Farmers' Market Downtown,http://sustainablefoodcenter.org/programs/sfc-farmers-market/sfc-farmers-market-downtown,https://www.facebook.com/SFCFarmersMarket/,https://twitter.com/SFClocal,https://www.youtube.com/user/SFCLocal,https://www.youtube.com/user/SFCLocal,422 Guadalupe St,Austin,Travis,Texas,78701,01/01/2017 to 12/31/2017,Sun: 9:00 AM-1:00 PM;,,,,,,,-97.747665,30.267387,,Y,Y,Y,N,Y,Y,Y,Y,Y,Y,Y,Y,Y,Y,Y,Y,N,Y,N,N,N,Y,Y,Y,N,N,Y,N,Y,N,Y,Y,N,N,Y,6/13/17 18:03
1005536,SFC Farmers' Market East,http://www.sfcfarmersmarket.org,https://www.facebook.com/SustainableFoodCenter?rf=101285056599989,https://twitter.com/SFClocal,,,2835 E Martin Luther King Jr. Blvd,Austin,Travis,Texas,76702,01/01/2014 to 12/31/2014,Tue: 3:00 PM-7:00 PM;,,,,,,,-97.7109086,30.2814372,,Y,Y,Y,N,Y,Y,Y,Y,N,N,Y,N,Y,Y,Y,Y,N,Y,N,N,N,Y,Y,N,N,N,N,N,Y,N,N,N,N,N,N,5/20/14 18:45
1002571,South Austin Farmers Market,http://www.southaustinfarmersmarket.com,,,,,2910 S. Congress,Austin,Travis,Texas,78745,,,,,,,,,-97.7579,30.2334,,N,N,N,N,N,-,N,N,N,N,N,N,N,N,N,N,N,N,N,N,N,N,N,N,N,N,N,N,N,N,N,N,N,N,N,2009
1009071,South Padre Island Farmers Market,,https://www.facebook.com/pages/South-Padre-Island-Farmers-Market/,,,,8605 Padre Island Blvd.,South Padre Island ,Cameron,Texas,78597,,Sun: 11:00 AM-1:00 PM;,,,,,,,-97.172023,26.147901,Private business parking lot,N,N,N,N,N,-,Y,N,N,N,Y,N,Y,Y,N,Y,N,N,N,Y,N,N,Y,N,N,N,N,N,Y,N,N,N,N,N,N,2/7/14 16:13
1000947,South Texas farmers Market,http://www.naegelinfarms.com,,,,,8101 Pat Booker Rd,Live Oak,Bexar,Texas,,,Tue: 9:00 AM-2:00 PM;,,,,,,,-98.328935,29.561429,Private business parking lot,Y,N,Y,Y,Y,N,N,N,N,Y,Y,N,N,Y,Y,Y,N,N,N,N,N,N,N,N,N,N,N,N,Y,N,N,N,N,N,N,6/11/13 15:37
1000948,South Texas farmers Market,http://www.naegelinfarms.com,,,,,6708 South Flores,San Antonio,Bexar,Texas,,,Mon: 9:00 AM-2:00 PM;Fri: 9:00 AM-2:00 PM;,,,,,,,-98.490125,29.35565,Private business parking lot,Y,Y,Y,Y,Y,N,N,N,N,Y,Y,N,N,Y,Y,N,N,N,N,N,N,N,N,N,N,N,N,N,Y,N,N,N,N,N,N,6/11/13 15:30
1007168,South Texas Farmers Market Association II,,,,,,800 Buena Vista,San Antonio,Bexar,Texas,78207,,,,,,,,,-98.5064,29.4252,,N,N,N,N,N,-,N,N,N,N,N,N,N,N,N,N,N,N,N,N,N,N,N,N,N,N,N,N,N,N,N,N,N,N,N,2009
1007178,South Texas Farmers Market Association III,,,,,,4722 Eisenhauer Road at Interstate Highway 35,San Antonio,Bexar,Texas,78218,,,,,,,,,-98.3988,29.4965,,N,N,N,N,N,-,N,N,N,N,N,N,N,N,N,N,N,N,N,N,N,N,N,N,N,N,N,N,N,N,N,N,N,N,N,2009
1007174,South Texas Farmers Market Association IV,,,,,,1625 S. Zarzamora Street,San Antonio,Bexar,Texas,78207,,,,,,,,,-98.5292,29.4104,,N,N,N,N,N,-,N,N,N,N,N,N,N,N,N,N,N,N,N,N,N,N,N,N,N,N,N,N,N,N,N,N,N,N,N,2009
1008171,Sun City Farmers Market,http://www.gtfma.com,https://www.facebook.com/pages/Georgetown-Farmers-Market-Assoc/195857010450938,,,,2 Texas Drive Georgetown,Georgetown,Williamson,Texas,78633,01/01/2014 to 12/31/2014,Tue: 9:00 AM-12:00 PM;,,,,,,,-97.68575,30.561622,Private business parking lot,Y,N,N,N,N,-,Y,N,N,N,Y,N,Y,Y,Y,Y,N,Y,N,Y,N,Y,Y,Y,N,N,N,N,Y,N,N,N,N,N,N,3/31/14 15:56
1009461,Sweet Magnolia Pickins Farmers & Artisans Market ,http://www.sweetmagnoliapickins.net/,https://www.facebook.com/pages/Magnolia-Farmers-Artisans-Market/240268125935,,,,Corner of FM 1774 and FM 1488,Magnolia,,Texas,77354,,,,,,,,,-95.7542,30.2113,,Y,N,N,N,N,-,N,N,N,N,N,N,N,N,N,N,N,N,N,N,N,N,N,N,N,N,N,N,N,N,N,N,N,N,N,2013
1007181,Taylor Area Farmers Market Association,,,,,,5th Street and Main Street,Taylor,Williamson,Texas,76574,,,,,,,,,-97.4098,30.5715,,N,N,N,N,N,-,N,N,N,N,N,N,N,N,N,N,N,N,N,N,N,N,N,N,N,N,N,N,N,N,N,N,N,N,N,2009
1000016,"Texarkana, Texas Farmers' Market",http://www.localharvest.org/texarkana-texas-farmers-market-M38382,,,,,305 Texas Boulevard,Texarkana,Bowie,Texas,75501,May to October,Tue:7:00 AM - 1:00 PM;Thu:7:00 AM - 1:00 PM;Sat:7:00 AM - 1:00 PM;,,,,,,,-94.045817,33.421527,Other,Y,N,N,N,Y,-,Y,Y,Y,Y,Y,N,Y,Y,Y,Y,N,Y,Y,Y,Y,N,N,Y,N,N,N,N,N,N,N,N,N,N,N,5/2/12 14:45
1000710,Texas Farmers' Market at Lakeline,http://www.TexasFarmersMarket.org,https://www.facebook.com/CedarParkFM?ref=hl,https://twitter.com/TFMLakeline,,"https://www.instagram.com/texasfarmersmarket/, our new farmers' market app:  https://texasfarmersmarket.spnd.st/join","Lakeline Mall parking lot, behind Sears & Dillard's",Cedar Park,Williamson,Texas,78613,,Sat: 9:00 AM-1:00 PM;,,,,,,,-97.806404,30.469332,,Y,Y,N,N,Y,Y,Y,Y,N,Y,Y,Y,Y,Y,Y,Y,N,Y,N,Y,Y,Y,Y,Y,Y,Y,Y,Y,Y,Y,Y,Y,Y,N,Y,6/27/16 13:21
1018164,Texas Farmers' Market at Lakeline,http://www.texasfarmersmarket.org,https://www.facebook.com/CedarParkFM?ref=hl,https://twitter.com/TFMLakeline,,https://www.instagram.com/texasfarmersmarket/,11200 Lakeline Mall Dr,Austin,Williamson,Texas,78613,01/01/2017 to 12/31/2017,Sat: 9:00 AM-1:00 PM;,01/01/2018 to 12/31/2018,,,,,,-97.807578,30.469075,,Y,N,Y,N,Y,Y,Y,Y,Y,Y,Y,Y,Y,Y,Y,Y,Y,Y,N,Y,Y,Y,Y,Y,N,Y,Y,N,Y,Y,Y,Y,Y,N,Y,6/20/17 14:09
1018183,Texas Farmers' Market at Mueller,http://www.texasfarmersmarket.org,https://www.facebook.com/TFMMueller/,https://twitter.com/TFMMueller,,https://www.instagram.com/texasfarmersmarket/,4209 Airport Blvd.,Austin,Travis,Texas,78722,01/01/2017 to 12/31/2017,Sun: 10:00 AM-2:00 PM;,,,,,,,-97.707108,30.296631,,Y,N,Y,N,Y,Y,Y,Y,N,Y,Y,Y,Y,Y,Y,Y,N,Y,N,Y,Y,Y,Y,Y,N,Y,Y,N,Y,Y,Y,Y,Y,N,Y,6/20/17 14:39
1009558,The Farmers Market at Bridgeland,http://www.farmersmarketatbridgeland.org/,https://www.facebook.com/TheFarmersMarketAtBridgeland,,,,16902 Bridgeland Landing,Cypress,,Texas,77433,,,,,,,,,-95.7194,29.9551,,Y,N,N,N,N,-,N,N,N,N,N,N,N,N,N,N,N,N,N,N,N,N,N,N,N,N,N,N,N,N,N,N,N,N,N,2013
1003644,The Farmers Market at Clear Lake Shores,http://www.farmersmarketatcls.com,https://www.facebook.com/farmersmarketatclearlakeshores,,http://www.youtube.com/watch?v=rnQHvgGMZ9U,,1020 Marina Bay Drive,Clear Lake Shores,Galveston,Texas,77565,,Sat: 8:00 AM-12:00 PM;,,,,,,,-95.03278,29.54096,Private business parking lot,Y,N,N,N,N,Y,N,Y,Y,Y,Y,N,Y,Y,Y,Y,N,Y,N,N,Y,Y,Y,Y,Y,N,N,N,Y,N,N,N,N,N,N,6/13/13 10:06
1017942,The Farmers Pantry,http://Wtgpa.org,,,,,4843 W 50th St,Lubbock ,Lubbock,Texas,79414,01/01/2017 to 12/31/2017,Thu: 10:00 AM-6:00 PM;Fri: 10:00 AM-6:00 PM;Sat: 10:00 AM-6:00 PM;,,,,,,,-101.917533,33.548016,,Y,N,N,N,N,-,Y,Y,Y,Y,Y,N,Y,Y,Y,Y,Y,Y,N,Y,Y,N,N,Y,N,N,Y,Y,Y,Y,N,Y,N,N,N,4/26/17 15:42
1002090,The Fresh Vegetable Market,,https://www.facebook.com/pages/The-Fresh-Vegetable-Market/135541366482017,,,,810 FM 168,OLTON,Lamb,Texas,79064,07/15/2014 to 09/30/2014,Mon: 9:00 AM-6:00 PM;Tue: 9:00 AM-6:00 PM;Wed: 9:00 AM-6:00 PM;Thu: 9:00 AM-6:00 PM;Fri: 9:00 AM-6:00 PM;Sat: 9:00 AM-12:00 PM;,,,,,,,-102.133327,34.207401,"On a farm from: a barn, a greenhouse, a tent, a stand, etc",Y,N,N,N,N,N,N,N,N,N,N,N,N,Y,N,N,N,N,N,N,N,N,N,N,N,N,N,N,N,N,N,N,N,N,N,5/18/14 11:50
1000937,The Historic McKinney Farmers Market at Adriatica,http://www.mckinneyfarmersmarket.com,https://www.facebook.com/pages/McKinney-Farmers-Market/105274276195799,,,,6851 Virginia Pkway,McKinney,Collin,Texas,75070,04/10/2014 to 09/25/2014,Thu: 3:00 PM-6:00 PM;,,,,,,,-96.612976,33.193898,Private business parking lot,Y,N,N,N,Y,N,Y,N,Y,Y,Y,N,Y,Y,Y,Y,N,Y,N,N,N,Y,N,Y,N,N,N,N,Y,N,N,N,N,N,N,3/14/14 12:20
1012595,Tobin FarmArt Market,,,,,,110 Auditorium Circle,San Antonio,Bexar,Texas,78205,01/01/2016 to 12/31/2016,Mon: 4:00 PM-7:00 PM;,,,,,,,-98.488822,29.43105,,Y,N,N,N,Y,-,Y,Y,Y,N,Y,N,Y,Y,Y,Y,N,N,N,Y,N,Y,N,Y,Y,N,N,N,Y,N,Y,N,Y,N,Y,7/14/16 14:24
1009195,Tomball Farmers Market ,http://www.tomballfarmersmarket.org/,,,,,14090 FM 2920 Rd. Suite G163,Tomball,,Texas,77377,,,,,,,,,-95.6095,30.0028,,Y,N,N,N,N,-,N,N,N,N,N,N,N,N,N,N,N,N,N,N,N,N,N,N,N,N,N,N,N,N,N,N,N,N,N,2013
1007188,Tri-County Farmers Market Association,,,,,,100 West Main,San Antonio,Bexar County,Texas,,,,,,,,,,-98.4938,29.4256,,N,N,N,N,N,-,N,N,N,N,N,N,N,N,N,N,N,N,N,N,N,N,N,N,N,N,N,N,N,N,N,N,N,N,N,2011
1007173,Tyler Farmers Market Association,,,,,,2112 W. Front St,Tyler,Smith,Texas,75702,,,,,,,,,-95.3235,32.3465,,N,N,N,N,N,-,N,N,N,N,N,N,N,N,N,N,N,N,N,N,N,N,N,N,N,N,N,N,N,N,N,N,N,N,N,2009
1010415,Urban Harvest Farmers Market @ Eastside,http://www.urbanharvest.org,www.facebook.com/urbanharvesthouston,,,,3000 Richmond Ave,Houston,Harris,Texas,77098,01/01/2014 to 12/31/2014,Sat: 8:00 AM-12:00 PM;,,,,,,,-95.423968,29.734576,Private business parking lot,Y,N,N,N,N,Y,Y,Y,N,Y,Y,Y,Y,Y,Y,Y,N,Y,N,Y,Y,Y,Y,Y,Y,Y,Y,Y,Y,N,Y,Y,N,N,N,8/5/14 12:23
1007186,Valley Growers Association,,,,,,312 Main Street,Fabens,El Paso,Texas,79838,,,,,,,,,-106.161,31.5049,,N,N,N,N,N,-,N,N,N,N,N,N,N,N,N,N,N,N,N,N,N,N,N,N,N,N,N,N,N,N,N,N,N,N,N,2009
1007147,Valley Growers Association I,,,,,,1225 Yandell Drive,El Paso,EL Paso,Texas,79902,,,,,,,,,-106.481,31.7693,,N,N,N,N,N,-,N,N,N,N,N,N,N,N,N,N,N,N,N,N,N,N,N,N,N,N,N,N,N,N,N,N,N,N,N,2009
1007184,Valley Growers Association II,,,,,,324 N. Zaragosa,El Paso,El Paso,Texas,79902,,,,,,,,,-106.324,31.6995,,N,N,N,N,N,-,N,N,N,N,N,N,N,N,N,N,N,N,N,N,N,N,N,N,N,N,N,N,N,N,N,N,N,N,N,2009
1007152,Valley Growers Association III,,,,,,7640 North Loop,El Paso,El Paso,Texas,79901,,,,,,,,,-106.363,31.74,,N,N,N,N,N,-,N,N,N,N,N,N,N,N,N,N,N,N,N,N,N,N,N,N,N,N,N,N,N,N,N,N,N,N,N,2009
1007153,Valley Growers Association IV,,,,,,14618 Gregg Road,El Paso,El Paso,Texas,79910,,,,,,,,,-106.433,31.8013,,N,N,N,N,N,-,N,N,N,N,N,N,N,N,N,N,N,N,N,N,N,N,N,N,N,N,N,N,N,N,N,N,N,N,N,2009
1016787,Vernon Farmers Market,,,,,,1700 Wilbarger,Vernon ,Wilbarger,Texas,76384,05/13/2017 to 08/26/2017,Sat: 8:00 AM-12:00 PM;,,,,,,,-99.284217,34.152885,,Y,Y,N,Y,N,-,Y,N,Y,N,Y,N,Y,Y,Y,Y,N,N,N,Y,N,N,Y,Y,N,N,N,N,Y,N,N,N,N,N,N,1/4/17 11:58
1001708,Waco Downtown Farmers Market,http://www.WacoDowntownFarmersMarket.com,https://www.facebook.com/pages/Waco-Downtown-Farmers-Market,,,http://instagram.com/wacofarmersmkt/,400 S. University Parks Drive,Waco,McLennan,Texas,76701,,Sat: 9:00 AM-1:00 PM;,,,,,,,-97.1247379,31.559316,,Y,N,N,N,Y,Y,Y,Y,N,Y,Y,N,N,Y,Y,Y,N,Y,N,Y,N,Y,Y,Y,N,Y,Y,N,Y,Y,Y,N,N,N,Y,6/29/16 23:25
1017941,West End Farmers Market,http://WTGPA.org,,,,,2910 W Loop 289,Lubbock ,Lubbock,Texas,79424,05/06/2017 to 10/14/2017,Sat: 9:30 AM-12:00 PM;,,,,,,,-101.947217,33.567661,,Y,Y,N,N,Y,-,Y,Y,Y,Y,Y,N,Y,Y,Y,Y,Y,Y,N,Y,Y,N,N,Y,N,N,Y,Y,Y,Y,N,Y,N,N,N,4/26/17 15:20
1010319,Westchase District Farmers Market,http://westchasedistrictfarmersmarket.com,https://www.facebook.com/westchasedistrictfarmersmarket,,,,10503 Westheimer Road,Houston,Harris,Texas,77042,01/01/2016 to 12/31/2016,Thu: 3:00 PM-7:00 PM;,,,,,,,-95.560152,29.736539,,Y,N,N,N,N,Y,Y,Y,N,N,Y,Y,Y,Y,Y,Y,N,Y,N,Y,Y,Y,Y,Y,N,N,Y,N,Y,Y,Y,N,Y,N,N,7/6/16 13:49
1007000,Wharton County Farmers Market,,,,,,100 Block South Houston Street,Wharton,Wharton,Texas,77488,,,,,,,,,-96.1012,29.3111,,N,N,N,N,N,-,N,N,N,N,N,N,N,N,N,N,N,N,N,N,N,N,N,N,N,N,N,N,N,N,N,N,N,N,N,2009
1009421,White Rock Local Market ,,https://www.facebook.com/WhiteRockLocalMarket,,,,702 N. Buckner Blvd and 9150 Garland Rd,Dallas,,Texas,75218,,,,,,,,,-96.7112,32.846,,Y,N,N,N,N,-,N,N,N,N,N,N,N,N,N,N,N,N,N,N,N,N,N,N,N,N,N,N,N,N,N,N,N,N,N,2013
1006186,Wimberley Farmers Market,http://www.wimberley.org/d/2089343_12663.htm,,,,,Lions Club Parking Lot #1 on FM 2325,Wimberley,,Texas,78676,,,,,,,,,-98.1953,30.0452,,N,N,N,N,N,-,N,N,N,N,N,N,N,N,N,N,N,N,N,N,N,N,N,N,N,N,N,N,N,N,N,N,N,N,N,2009
1001536,Winnsboro Farmers' Market,http://www.winnsborofarmersmarket.com,https://www.facebook.com/winnsborofarmersmarket,https://twitter.com/WinnsboroMarket,,,Market Street from Elm to Broadway,Winnsboro,Wood,Texas,75494,04/04/2015 to 10/31/2015,Sat: 8:00 AM-12:00 PM;,11/07/2015 to 03/26/2016,Sat: 10:00 AM-1:00 PM;,,,,,-95.2902224,32.9573449,,Y,N,N,N,Y,-,Y,Y,Y,Y,Y,N,Y,Y,Y,Y,N,Y,N,N,Y,Y,N,Y,N,Y,N,N,Y,N,N,N,N,N,N,3/29/15 17:47
1010307,Wolf Ranch Farmers' Market,http://www.wolfranchfarmersmarket.com,https://www.facebook.com/pages/Wolfranchfarmersmarket/234407923424995,,,,1015 W University Avenue ,Georgetown,Williamson,Texas,78628,01/01/2014 to 12/31/2014,Sat: 9:00 AM-1:00 PM;,,,,,,,-97.6936314,30.6302756,Private business parking lot,Y,N,N,N,N,-,Y,N,N,N,Y,Y,N,Y,Y,Y,N,Y,N,N,N,Y,Y,Y,N,Y,Y,N,Y,N,N,N,N,N,N,6/10/14 12:07
1017943,Wolfforth Farm Fresh Market,http://wtgpa.org,,,,,Main St and Dowden Ave,Wolfforth ,Lubbock,Texas,79382,05/18/2017 to 09/28/2017,Thu: 10:00 AM-1:00 PM;,,,,,,,-102.009305,33.509321,,Y,N,N,N,N,-,Y,Y,N,Y,Y,N,Y,Y,Y,Y,Y,Y,N,Y,N,N,N,Y,N,N,Y,Y,Y,Y,N,Y,N,N,N,4/26/17 15:47
1012372,YourFarmer2U Georgetown,http://www.yourfarmer2u.com,www.facebook.com/YourFarmer2U,,,www.instagram.com/yourfarmer2u,5th & Austin Ave,Georgetown,Williamson,Texas,78626,01/01/2016 to 12/31/2016,Thu: 3:00 PM-6:00 PM;,,,,,,,-97.6780832,30.6391672,,Y,N,N,N,N,-,N,N,N,N,Y,N,Y,Y,Y,Y,N,Y,N,Y,N,N,N,Y,N,N,N,N,Y,Y,N,N,Y,N,N,7/9/16 10:32